<?xml version="1.0" encoding="utf-8"?>
<gpx creator="Garmin Explore App" version="1.1" xmlns:adv="http://www.garmin.com/xmlschemas/AdventuresExtensions/v1" xmlns:gpxtpx="http://www.garmin.com/xmlschemas/TrackPointExtension/v1" xmlns:gpxtrx="http://www.garmin.com/xmlschemas/GpxExtensions/v3" xmlns:gpxx="http://www.garmin.com/xmlschemas/GpxExtensions/v3" xmlns:trp="http://www.garmin.com/xmlschemas/TripExtensions/v1" xmlns:wptx1="http://www.garmin.com/xmlschemas/WaypointExtension/v1" xmlns:xsi="http://www.w3.org/2001/XMLSchema-instance" xmlns="http://www.topografix.com/GPX/1/1" xsi:schemaLocation="http://www.topografix.com/GPX/1/1 http://www.topografix.com/GPX/1/1/gpx.xsd http://www.garmin.com/xmlschemas/WaypointExtension/v1 http://www8.garmin.com/xmlschemas/WaypointExtensionv1.xsd http://www.garmin.com/xmlschemas/TrackPointExtension/v1 http://www.garmin.com/xmlschemas/TrackPointExtensionv1.xsd http://www.garmin.com/xmlschemas/GpxExtensions/v3 http://www8.garmin.com/xmlschemas/GpxExtensionsv3.xsd http://www.garmin.com/xmlschemas/ActivityExtension/v1 http://www8.garmin.com/xmlschemas/ActivityExtensionv1.xsd http://www.garmin.com/xmlschemas/AdventuresExtensions/v1 http://www8.garmin.com/xmlschemas/AdventuresExtensionv1.xsd http://www.garmin.com/xmlschemas/PressureExtension/v1 http://www.garmin.com/xmlschemas/PressureExtensionv1.xsd">
	<metadata>
		<name>2026-06-07 Monte Ceraino</name>
		<link href="http://www.garmin.com">
			<text>Garmin International</text>
		</link>
		<time>2026-06-07T16:32:50Z</time>
	</metadata>
	<trk>
		<name>2026-06-07 Monte Ceraino</name>
		<extensions>
			<gpxx:TrackExtension>
				<gpxx:DisplayColor>Red</gpxx:DisplayColor>
			</gpxx:TrackExtension>
		</extensions>
		<trkseg>
			<trkpt lat="45.89625263214111" lon="10.940907955169678">
				<ele>1167.0</ele>
				<time>2026-06-07T08:52:53Z</time>
			</trkpt>
			<trkpt lat="45.89625263214111" lon="10.940908074378967">
				<ele>1167.0</ele>
				<time>2026-06-07T08:52:54Z</time>
			</trkpt>
			<trkpt lat="45.896241664886475" lon="10.940920114517212">
				<ele>1167.5999755859375</ele>
				<time>2026-06-07T08:53:23Z</time>
			</trkpt>
			<trkpt lat="45.89623284339905" lon="10.94091284275055">
				<ele>1167.5999755859375</ele>
				<time>2026-06-07T08:53:32Z</time>
			</trkpt>
			<trkpt lat="45.896222949028015" lon="10.940905570983887">
				<ele>1167.5999755859375</ele>
				<time>2026-06-07T08:53:33Z</time>
			</trkpt>
			<trkpt lat="45.89618766307831" lon="10.940913438796997">
				<ele>1167.800048828125</ele>
				<time>2026-06-07T08:53:37Z</time>
			</trkpt>
			<trkpt lat="45.89617729187012" lon="10.940913438796997">
				<ele>1167.800048828125</ele>
				<time>2026-06-07T08:53:38Z</time>
			</trkpt>
			<trkpt lat="45.896164417266846" lon="10.94091248512268">
				<ele>1167.800048828125</ele>
				<time>2026-06-07T08:53:39Z</time>
			</trkpt>
			<trkpt lat="45.89615035057068" lon="10.940916657447815">
				<ele>1167.800048828125</ele>
				<time>2026-06-07T08:53:40Z</time>
			</trkpt>
			<trkpt lat="45.896138191223145" lon="10.9409259557724">
				<ele>1167.800048828125</ele>
				<time>2026-06-07T08:53:41Z</time>
			</trkpt>
			<trkpt lat="45.896127462387085" lon="10.94093906879425">
				<ele>1167.800048828125</ele>
				<time>2026-06-07T08:53:42Z</time>
			</trkpt>
			<trkpt lat="45.89611828327179" lon="10.940952062606812">
				<ele>1167.5999755859375</ele>
				<time>2026-06-07T08:53:43Z</time>
			</trkpt>
			<trkpt lat="45.896111488342285" lon="10.940966248512268">
				<ele>1167.5999755859375</ele>
				<time>2026-06-07T08:53:44Z</time>
			</trkpt>
			<trkpt lat="45.896106123924255" lon="10.940979719161987">
				<ele>1167.5999755859375</ele>
				<time>2026-06-07T08:53:45Z</time>
			</trkpt>
			<trkpt lat="45.89610004425049" lon="10.940992832183838">
				<ele>1167.5999755859375</ele>
				<time>2026-06-07T08:53:46Z</time>
			</trkpt>
			<trkpt lat="45.896093130111694" lon="10.94100570678711">
				<ele>1167.5999755859375</ele>
				<time>2026-06-07T08:53:47Z</time>
			</trkpt>
			<trkpt lat="45.89608716964722" lon="10.94101893901825">
				<ele>1167.5999755859375</ele>
				<time>2026-06-07T08:53:48Z</time>
			</trkpt>
			<trkpt lat="45.896082162857056" lon="10.941033959388733">
				<ele>1167.4000244140625</ele>
				<time>2026-06-07T08:53:49Z</time>
			</trkpt>
			<trkpt lat="45.89607787132263" lon="10.941049814224243">
				<ele>1167.4000244140625</ele>
				<time>2026-06-07T08:53:50Z</time>
			</trkpt>
			<trkpt lat="45.89607012271881" lon="10.941064715385437">
				<ele>1167.4000244140625</ele>
				<time>2026-06-07T08:53:51Z</time>
			</trkpt>
			<trkpt lat="45.89606153964996" lon="10.941078543663025">
				<ele>1167.4000244140625</ele>
				<time>2026-06-07T08:53:52Z</time>
			</trkpt>
			<trkpt lat="45.89595341682434" lon="10.941208124160767">
				<ele>1167.800048828125</ele>
				<time>2026-06-07T08:54:05Z</time>
			</trkpt>
			<trkpt lat="45.895944237709045" lon="10.941222071647644">
				<ele>1168.0</ele>
				<time>2026-06-07T08:54:06Z</time>
			</trkpt>
			<trkpt lat="45.89593470096588" lon="10.941234350204468">
				<ele>1168.0</ele>
				<time>2026-06-07T08:54:07Z</time>
			</trkpt>
			<trkpt lat="45.895923018455505" lon="10.941245079040527">
				<ele>1168.0</ele>
				<time>2026-06-07T08:54:08Z</time>
			</trkpt>
			<trkpt lat="45.89591205120087" lon="10.941254496574402">
				<ele>1168.0</ele>
				<time>2026-06-07T08:54:09Z</time>
			</trkpt>
			<trkpt lat="45.895902037620544" lon="10.941263794898987">
				<ele>1168.0</ele>
				<time>2026-06-07T08:54:10Z</time>
			</trkpt>
			<trkpt lat="45.895891189575195" lon="10.941272616386414">
				<ele>1168.0</ele>
				<time>2026-06-07T08:54:11Z</time>
			</trkpt>
			<trkpt lat="45.895880818367004" lon="10.941281080245972">
				<ele>1168.0</ele>
				<time>2026-06-07T08:54:12Z</time>
			</trkpt>
			<trkpt lat="45.89567685127258" lon="10.94140112400055">
				<ele>1169.5999755859375</ele>
				<time>2026-06-07T08:54:30Z</time>
			</trkpt>
			<trkpt lat="45.89541471004486" lon="10.941393256187439">
				<ele>1170.5999755859375</ele>
				<time>2026-06-07T08:54:49Z</time>
			</trkpt>
			<trkpt lat="45.89516878128052" lon="10.941399812698364">
				<ele>1171.0</ele>
				<time>2026-06-07T08:55:07Z</time>
			</trkpt>
			<trkpt lat="45.894917488098145" lon="10.941342830657959">
				<ele>1171.4000244140625</ele>
				<time>2026-06-07T08:55:26Z</time>
			</trkpt>
			<trkpt lat="45.8948450088501" lon="10.941274523735046">
				<ele>1172.0</ele>
				<time>2026-06-07T08:55:41Z</time>
			</trkpt>
			<trkpt lat="45.89482831954956" lon="10.941247701644897">
				<ele>1172.199951171875</ele>
				<time>2026-06-07T08:55:47Z</time>
			</trkpt>
			<trkpt lat="45.894819498062134" lon="10.941238403320312">
				<ele>1172.199951171875</ele>
				<time>2026-06-07T08:55:48Z</time>
			</trkpt>
			<trkpt lat="45.89480912685394" lon="10.94122850894928">
				<ele>1172.199951171875</ele>
				<time>2026-06-07T08:55:49Z</time>
			</trkpt>
			<trkpt lat="45.89479982852936" lon="10.941218972206116">
				<ele>1172.199951171875</ele>
				<time>2026-06-07T08:55:50Z</time>
			</trkpt>
			<trkpt lat="45.89479207992554" lon="10.941208362579346">
				<ele>1172.199951171875</ele>
				<time>2026-06-07T08:55:51Z</time>
			</trkpt>
			<trkpt lat="45.89478421211243" lon="10.941197514533997">
				<ele>1172.199951171875</ele>
				<time>2026-06-07T08:55:52Z</time>
			</trkpt>
			<trkpt lat="45.894774317741394" lon="10.94118869304657">
				<ele>1172.199951171875</ele>
				<time>2026-06-07T08:55:53Z</time>
			</trkpt>
			<trkpt lat="45.89476466178894" lon="10.941180109977722">
				<ele>1172.199951171875</ele>
				<time>2026-06-07T08:55:54Z</time>
			</trkpt>
			<trkpt lat="45.894582867622375" lon="10.941020250320435">
				<ele>1172.4000244140625</ele>
				<time>2026-06-07T08:56:10Z</time>
			</trkpt>
			<trkpt lat="45.894410252571106" lon="10.940868139266968">
				<ele>1173.4000244140625</ele>
				<time>2026-06-07T08:56:25Z</time>
			</trkpt>
			<trkpt lat="45.89420545101166" lon="10.940668821334839">
				<ele>1174.800048828125</ele>
				<time>2026-06-07T08:56:44Z</time>
			</trkpt>
			<trkpt lat="45.89403450489044" lon="10.940500140190125">
				<ele>1176.0</ele>
				<time>2026-06-07T08:57:00Z</time>
			</trkpt>
			<trkpt lat="45.893871665000916" lon="10.94027853012085">
				<ele>1177.4000244140625</ele>
				<time>2026-06-07T08:57:18Z</time>
			</trkpt>
			<trkpt lat="45.893768310546875" lon="10.94007933139801">
				<ele>1179.0</ele>
				<time>2026-06-07T08:57:32Z</time>
			</trkpt>
			<trkpt lat="45.89367496967316" lon="10.939854264259338">
				<ele>1180.0</ele>
				<time>2026-06-07T08:57:47Z</time>
			</trkpt>
			<trkpt lat="45.893555760383606" lon="10.939629912376404">
				<ele>1181.0</ele>
				<time>2026-06-07T08:58:04Z</time>
			</trkpt>
			<trkpt lat="45.89341068267822" lon="10.93933629989624">
				<ele>1181.199951171875</ele>
				<time>2026-06-07T08:58:24Z</time>
			</trkpt>
			<trkpt lat="45.89325678348541" lon="10.939109444618225">
				<ele>1182.0</ele>
				<time>2026-06-07T08:58:41Z</time>
			</trkpt>
			<trkpt lat="45.89313089847565" lon="10.938917756080627">
				<ele>1183.4000244140625</ele>
				<time>2026-06-07T08:58:56Z</time>
			</trkpt>
			<trkpt lat="45.893123507499695" lon="10.938905000686646">
				<ele>1183.4000244140625</ele>
				<time>2026-06-07T08:58:57Z</time>
			</trkpt>
			<trkpt lat="45.89311456680298" lon="10.938893437385559">
				<ele>1183.4000244140625</ele>
				<time>2026-06-07T08:58:58Z</time>
			</trkpt>
			<trkpt lat="45.893107533454895" lon="10.93887972831726">
				<ele>1183.5999755859375</ele>
				<time>2026-06-07T08:58:59Z</time>
			</trkpt>
			<trkpt lat="45.89299774169922" lon="10.93868887424469">
				<ele>1185.0</ele>
				<time>2026-06-07T08:59:14Z</time>
			</trkpt>
			<trkpt lat="45.89289391040802" lon="10.938551306724548">
				<ele>1186.199951171875</ele>
				<time>2026-06-07T08:59:27Z</time>
			</trkpt>
			<trkpt lat="45.89285099506378" lon="10.93855082988739">
				<ele>1187.4000244140625</ele>
				<time>2026-06-07T08:59:36Z</time>
			</trkpt>
			<trkpt lat="45.89282739162445" lon="10.938549995422363">
				<ele>1187.5999755859375</ele>
				<time>2026-06-07T08:59:38Z</time>
			</trkpt>
			<trkpt lat="45.89281487464905" lon="10.938551187515259">
				<ele>1187.5999755859375</ele>
				<time>2026-06-07T08:59:39Z</time>
			</trkpt>
			<trkpt lat="45.89280378818512" lon="10.938557147979736">
				<ele>1187.5999755859375</ele>
				<time>2026-06-07T08:59:40Z</time>
			</trkpt>
			<trkpt lat="45.8927925825119" lon="10.938562631607056">
				<ele>1187.5999755859375</ele>
				<time>2026-06-07T08:59:41Z</time>
			</trkpt>
			<trkpt lat="45.892781257629395" lon="10.938565254211426">
				<ele>1187.5999755859375</ele>
				<time>2026-06-07T08:59:42Z</time>
			</trkpt>
			<trkpt lat="45.89276921749115" lon="10.938568234443665">
				<ele>1187.800048828125</ele>
				<time>2026-06-07T08:59:43Z</time>
			</trkpt>
			<trkpt lat="45.89275586605072" lon="10.93857192993164">
				<ele>1187.800048828125</ele>
				<time>2026-06-07T08:59:44Z</time>
			</trkpt>
			<trkpt lat="45.8927435874939" lon="10.938579440116882">
				<ele>1187.800048828125</ele>
				<time>2026-06-07T08:59:45Z</time>
			</trkpt>
			<trkpt lat="45.892733335494995" lon="10.938587546348572">
				<ele>1188.0</ele>
				<time>2026-06-07T08:59:46Z</time>
			</trkpt>
			<trkpt lat="45.89267063140869" lon="10.93860638141632">
				<ele>1188.4000244140625</ele>
				<time>2026-06-07T08:59:51Z</time>
			</trkpt>
			<trkpt lat="45.89265847206116" lon="10.9386146068573">
				<ele>1188.5999755859375</ele>
				<time>2026-06-07T08:59:52Z</time>
			</trkpt>
			<trkpt lat="45.892592430114746" lon="10.93863832950592">
				<ele>1189.0</ele>
				<time>2026-06-07T08:59:57Z</time>
			</trkpt>
			<trkpt lat="45.89258134365082" lon="10.93864619731903">
				<ele>1189.199951171875</ele>
				<time>2026-06-07T08:59:58Z</time>
			</trkpt>
			<trkpt lat="45.89256954193115" lon="10.938651442527771">
				<ele>1189.199951171875</ele>
				<time>2026-06-07T08:59:59Z</time>
			</trkpt>
			<trkpt lat="45.89255714416504" lon="10.938653588294983">
				<ele>1189.4000244140625</ele>
				<time>2026-06-07T09:00:00Z</time>
			</trkpt>
			<trkpt lat="45.8925439119339" lon="10.938656091690063">
				<ele>1189.4000244140625</ele>
				<time>2026-06-07T09:00:01Z</time>
			</trkpt>
			<trkpt lat="45.89253211021423" lon="10.938663840293884">
				<ele>1189.4000244140625</ele>
				<time>2026-06-07T09:00:02Z</time>
			</trkpt>
			<trkpt lat="45.89252173900604" lon="10.938670873641968">
				<ele>1189.5999755859375</ele>
				<time>2026-06-07T09:00:03Z</time>
			</trkpt>
			<trkpt lat="45.89251112937927" lon="10.938673615455627">
				<ele>1189.5999755859375</ele>
				<time>2026-06-07T09:00:04Z</time>
			</trkpt>
			<trkpt lat="45.89249789714813" lon="10.938677072525024">
				<ele>1189.5999755859375</ele>
				<time>2026-06-07T09:00:05Z</time>
			</trkpt>
			<trkpt lat="45.89229416847229" lon="10.938758850097656">
				<ele>1190.800048828125</ele>
				<time>2026-06-07T09:00:21Z</time>
			</trkpt>
			<trkpt lat="45.89212250709534" lon="10.938828468322754">
				<ele>1191.800048828125</ele>
				<time>2026-06-07T09:00:35Z</time>
			</trkpt>
			<trkpt lat="45.89202153682709" lon="10.93885326385498">
				<ele>1192.5999755859375</ele>
				<time>2026-06-07T09:00:43Z</time>
			</trkpt>
			<trkpt lat="45.89201283454895" lon="10.938843607902527">
				<ele>1192.5999755859375</ele>
				<time>2026-06-07T09:00:44Z</time>
			</trkpt>
			<trkpt lat="45.89197635650635" lon="10.938747882843018">
				<ele>1193.199951171875</ele>
				<time>2026-06-07T09:00:51Z</time>
			</trkpt>
			<trkpt lat="45.89197814464569" lon="10.938733220100403">
				<ele>1193.4000244140625</ele>
				<time>2026-06-07T09:00:52Z</time>
			</trkpt>
			<trkpt lat="45.891982197761536" lon="10.93871819972992">
				<ele>1193.4000244140625</ele>
				<time>2026-06-07T09:00:53Z</time>
			</trkpt>
			<trkpt lat="45.89198875427246" lon="10.938704490661621">
				<ele>1193.5999755859375</ele>
				<time>2026-06-07T09:00:54Z</time>
			</trkpt>
			<trkpt lat="45.891995906829834" lon="10.938689112663269">
				<ele>1193.800048828125</ele>
				<time>2026-06-07T09:00:55Z</time>
			</trkpt>
			<trkpt lat="45.8921240568161" lon="10.93845546245575">
				<ele>1195.199951171875</ele>
				<time>2026-06-07T09:01:11Z</time>
			</trkpt>
			<trkpt lat="45.89226675033569" lon="10.938193082809448">
				<ele>1196.800048828125</ele>
				<time>2026-06-07T09:01:29Z</time>
			</trkpt>
			<trkpt lat="45.89238750934601" lon="10.937968730926514">
				<ele>1198.0</ele>
				<time>2026-06-07T09:01:45Z</time>
			</trkpt>
			<trkpt lat="45.89241397380829" lon="10.937838673591614">
				<ele>1198.5999755859375</ele>
				<time>2026-06-07T09:01:53Z</time>
			</trkpt>
			<trkpt lat="45.89241027832031" lon="10.93781864643097">
				<ele>1198.800048828125</ele>
				<time>2026-06-07T09:01:54Z</time>
			</trkpt>
			<trkpt lat="45.89240527153015" lon="10.937801718711853">
				<ele>1198.800048828125</ele>
				<time>2026-06-07T09:01:55Z</time>
			</trkpt>
			<trkpt lat="45.892398715019226" lon="10.937784671783447">
				<ele>1199.0</ele>
				<time>2026-06-07T09:01:56Z</time>
			</trkpt>
			<trkpt lat="45.89238727092743" lon="10.937772989273071">
				<ele>1199.0</ele>
				<time>2026-06-07T09:01:57Z</time>
			</trkpt>
			<trkpt lat="45.89228141307831" lon="10.937767624855042">
				<ele>1200.4000244140625</ele>
				<time>2026-06-07T09:02:07Z</time>
			</trkpt>
			<trkpt lat="45.89224851131439" lon="10.937769651412964">
				<ele>1201.0</ele>
				<time>2026-06-07T09:02:10Z</time>
			</trkpt>
			<trkpt lat="45.892141938209534" lon="10.93781328201294">
				<ele>1202.800048828125</ele>
				<time>2026-06-07T09:02:21Z</time>
			</trkpt>
			<trkpt lat="45.891998410224915" lon="10.937835931777954">
				<ele>1205.4000244140625</ele>
				<time>2026-06-07T09:02:35Z</time>
			</trkpt>
			<trkpt lat="45.89189887046814" lon="10.937852144241333">
				<ele>1207.5999755859375</ele>
				<time>2026-06-07T09:02:54Z</time>
			</trkpt>
			<trkpt lat="45.891688108444214" lon="10.937857747077942">
				<ele>1209.199951171875</ele>
				<time>2026-06-07T09:03:11Z</time>
			</trkpt>
			<trkpt lat="45.8916779756546" lon="10.937860012054443">
				<ele>1209.4000244140625</ele>
				<time>2026-06-07T09:03:12Z</time>
			</trkpt>
			<trkpt lat="45.89166569709778" lon="10.937860488891602">
				<ele>1209.5999755859375</ele>
				<time>2026-06-07T09:03:13Z</time>
			</trkpt>
			<trkpt lat="45.89153790473938" lon="10.937904715538025">
				<ele>1210.800048828125</ele>
				<time>2026-06-07T09:03:25Z</time>
			</trkpt>
			<trkpt lat="45.891491174697876" lon="10.937918782234192">
				<ele>1211.199951171875</ele>
				<time>2026-06-07T09:03:29Z</time>
			</trkpt>
			<trkpt lat="45.891480684280396" lon="10.937918186187744">
				<ele>1211.4000244140625</ele>
				<time>2026-06-07T09:03:30Z</time>
			</trkpt>
			<trkpt lat="45.89131510257721" lon="10.937866687774658">
				<ele>1212.800048828125</ele>
				<time>2026-06-07T09:03:47Z</time>
			</trkpt>
			<trkpt lat="45.89115798473358" lon="10.93782389163971">
				<ele>1214.199951171875</ele>
				<time>2026-06-07T09:04:06Z</time>
			</trkpt>
			<trkpt lat="45.89105796813965" lon="10.9378080368042">
				<ele>1215.5999755859375</ele>
				<time>2026-06-07T09:04:27Z</time>
			</trkpt>
			<trkpt lat="45.89098334312439" lon="10.937814474105835">
				<ele>1216.800048828125</ele>
				<time>2026-06-07T09:04:43Z</time>
			</trkpt>
			<trkpt lat="45.89097273349762" lon="10.93781328201294">
				<ele>1216.800048828125</ele>
				<time>2026-06-07T09:04:44Z</time>
			</trkpt>
			<trkpt lat="45.890897035598755" lon="10.937799334526062">
				<ele>1217.4000244140625</ele>
				<time>2026-06-07T09:05:00Z</time>
			</trkpt>
			<trkpt lat="45.890782713890076" lon="10.937728881835938">
				<ele>1218.0</ele>
				<time>2026-06-07T09:05:20Z</time>
			</trkpt>
			<trkpt lat="45.8907732963562" lon="10.937716364860535">
				<ele>1218.0</ele>
				<time>2026-06-07T09:05:21Z</time>
			</trkpt>
			<trkpt lat="45.890709400177" lon="10.937608122825623">
				<ele>1218.5999755859375</ele>
				<time>2026-06-07T09:05:29Z</time>
			</trkpt>
			<trkpt lat="45.89069354534149" lon="10.937591910362244">
				<ele>1218.800048828125</ele>
				<time>2026-06-07T09:05:31Z</time>
			</trkpt>
			<trkpt lat="45.89068353176117" lon="10.937581181526184">
				<ele>1219.0</ele>
				<time>2026-06-07T09:05:32Z</time>
			</trkpt>
			<trkpt lat="45.890674471855164" lon="10.937569618225098">
				<ele>1219.0</ele>
				<time>2026-06-07T09:05:33Z</time>
			</trkpt>
			<trkpt lat="45.89064049720764" lon="10.937526822090149">
				<ele>1219.5999755859375</ele>
				<time>2026-06-07T09:05:37Z</time>
			</trkpt>
			<trkpt lat="45.89063048362732" lon="10.937514424324036">
				<ele>1219.5999755859375</ele>
				<time>2026-06-07T09:05:38Z</time>
			</trkpt>
			<trkpt lat="45.89061999320984" lon="10.937501430511475">
				<ele>1219.800048828125</ele>
				<time>2026-06-07T09:05:39Z</time>
			</trkpt>
			<trkpt lat="45.89055037498474" lon="10.937355995178223">
				<ele>1221.199951171875</ele>
				<time>2026-06-07T09:05:51Z</time>
			</trkpt>
			<trkpt lat="45.890588879585266" lon="10.937329649925232">
				<ele>1223.0</ele>
				<time>2026-06-07T09:06:08Z</time>
			</trkpt>
			<trkpt lat="45.89070415496826" lon="10.9373859167099">
				<ele>1224.5999755859375</ele>
				<time>2026-06-07T09:06:21Z</time>
			</trkpt>
			<trkpt lat="45.8907356262207" lon="10.937406182289124">
				<ele>1225.199951171875</ele>
				<time>2026-06-07T09:06:29Z</time>
			</trkpt>
			<trkpt lat="45.89077591896057" lon="10.937423825263977">
				<ele>1225.199951171875</ele>
				<time>2026-06-07T09:06:33Z</time>
			</trkpt>
			<trkpt lat="45.89078617095947" lon="10.93742573261261">
				<ele>1225.199951171875</ele>
				<time>2026-06-07T09:06:34Z</time>
			</trkpt>
			<trkpt lat="45.89087378978729" lon="10.93740200996399">
				<ele>1225.800048828125</ele>
				<time>2026-06-07T09:06:52Z</time>
			</trkpt>
			<trkpt lat="45.89100885391235" lon="10.937299489974976">
				<ele>1228.0</ele>
				<time>2026-06-07T09:07:07Z</time>
			</trkpt>
			<trkpt lat="45.89110565185547" lon="10.937116742134094">
				<ele>1230.4000244140625</ele>
				<time>2026-06-07T09:07:23Z</time>
			</trkpt>
			<trkpt lat="45.89110791683197" lon="10.937084555625916">
				<ele>1230.5999755859375</ele>
				<time>2026-06-07T09:07:25Z</time>
			</trkpt>
			<trkpt lat="45.89111113548279" lon="10.937039732933044">
				<ele>1231.199951171875</ele>
				<time>2026-06-07T09:07:28Z</time>
			</trkpt>
			<trkpt lat="45.89109432697296" lon="10.936996102333069">
				<ele>1233.199951171875</ele>
				<time>2026-06-07T09:07:42Z</time>
			</trkpt>
			<trkpt lat="45.89108395576477" lon="10.937005519866943">
				<ele>1232.4000244140625</ele>
				<time>2026-06-07T09:08:13Z</time>
			</trkpt>
			<trkpt lat="45.89106774330139" lon="10.937044978141785">
				<ele>1232.199951171875</ele>
				<time>2026-06-07T09:08:39Z</time>
			</trkpt>
			<trkpt lat="45.89108419418335" lon="10.93709421157837">
				<ele>1232.5999755859375</ele>
				<time>2026-06-07T09:08:53Z</time>
			</trkpt>
			<trkpt lat="45.891083002090454" lon="10.937108278274536">
				<ele>1232.4000244140625</ele>
				<time>2026-06-07T09:08:54Z</time>
			</trkpt>
			<trkpt lat="45.89105010032654" lon="10.937233090400696">
				<ele>1231.199951171875</ele>
				<time>2026-06-07T09:09:04Z</time>
			</trkpt>
			<trkpt lat="45.89093089103699" lon="10.937355160713196">
				<ele>1228.5999755859375</ele>
				<time>2026-06-07T09:09:16Z</time>
			</trkpt>
			<trkpt lat="45.89074897766113" lon="10.937434077262878">
				<ele>1225.800048828125</ele>
				<time>2026-06-07T09:09:31Z</time>
			</trkpt>
			<trkpt lat="45.89060640335083" lon="10.937344789505005">
				<ele>1224.199951171875</ele>
				<time>2026-06-07T09:09:44Z</time>
			</trkpt>
			<trkpt lat="45.89055037498474" lon="10.937350034713745">
				<ele>1221.5999755859375</ele>
				<time>2026-06-07T09:09:58Z</time>
			</trkpt>
			<trkpt lat="45.89037299156189" lon="10.937233448028564">
				<ele>1221.5999755859375</ele>
				<time>2026-06-07T09:10:20Z</time>
			</trkpt>
			<trkpt lat="45.89030611515045" lon="10.937173247337341">
				<ele>1221.4000244140625</ele>
				<time>2026-06-07T09:10:27Z</time>
			</trkpt>
			<trkpt lat="45.89023458957672" lon="10.937049627304077">
				<ele>1221.0</ele>
				<time>2026-06-07T09:10:43Z</time>
			</trkpt>
			<trkpt lat="45.89020097255707" lon="10.936966896057129">
				<ele>1220.0</ele>
				<time>2026-06-07T09:11:02Z</time>
			</trkpt>
			<trkpt lat="45.89017200469971" lon="10.936910152435303">
				<ele>1220.199951171875</ele>
				<time>2026-06-07T09:11:17Z</time>
			</trkpt>
			<trkpt lat="45.890143394470215" lon="10.93680989742279">
				<ele>1220.0</ele>
				<time>2026-06-07T09:11:38Z</time>
			</trkpt>
			<trkpt lat="45.89013087749481" lon="10.936764478683472">
				<ele>1220.4000244140625</ele>
				<time>2026-06-07T09:11:59Z</time>
			</trkpt>
			<trkpt lat="45.890105843544006" lon="10.936737179756165">
				<ele>1221.199951171875</ele>
				<time>2026-06-07T09:12:15Z</time>
			</trkpt>
			<trkpt lat="45.89012801647186" lon="10.936676025390625">
				<ele>1222.4000244140625</ele>
				<time>2026-06-07T09:12:33Z</time>
			</trkpt>
			<trkpt lat="45.890135169029236" lon="10.936617612838745">
				<ele>1222.4000244140625</ele>
				<time>2026-06-07T09:12:56Z</time>
			</trkpt>
			<trkpt lat="45.89011836051941" lon="10.936594724655151">
				<ele>1222.800048828125</ele>
				<time>2026-06-07T09:13:13Z</time>
			</trkpt>
			<trkpt lat="45.890140771865845" lon="10.93653118610382">
				<ele>1225.199951171875</ele>
				<time>2026-06-07T09:13:35Z</time>
			</trkpt>
			<trkpt lat="45.89013409614563" lon="10.936493992805481">
				<ele>1225.800048828125</ele>
				<time>2026-06-07T09:14:01Z</time>
			</trkpt>
			<trkpt lat="45.89011299610138" lon="10.936473608016968">
				<ele>1227.199951171875</ele>
				<time>2026-06-07T09:14:05Z</time>
			</trkpt>
			<trkpt lat="45.890064001083374" lon="10.936365723609924">
				<ele>1227.0</ele>
				<time>2026-06-07T09:14:24Z</time>
			</trkpt>
			<trkpt lat="45.890032052993774" lon="10.936362147331238">
				<ele>1227.5999755859375</ele>
				<time>2026-06-07T09:14:47Z</time>
			</trkpt>
			<trkpt lat="45.889995098114014" lon="10.936360120773315">
				<ele>1227.5999755859375</ele>
				<time>2026-06-07T09:15:10Z</time>
			</trkpt>
			<trkpt lat="45.88995027542114" lon="10.936349630355835">
				<ele>1227.0</ele>
				<time>2026-06-07T09:15:32Z</time>
			</trkpt>
			<trkpt lat="45.88992214202881" lon="10.936347603797913">
				<ele>1225.800048828125</ele>
				<time>2026-06-07T09:15:56Z</time>
			</trkpt>
			<trkpt lat="45.88990843296051" lon="10.936336040496826">
				<ele>1225.4000244140625</ele>
				<time>2026-06-07T09:16:15Z</time>
			</trkpt>
			<trkpt lat="45.889914870262146" lon="10.936336159706116">
				<ele>1226.199951171875</ele>
				<time>2026-06-07T09:16:40Z</time>
			</trkpt>
			<trkpt lat="45.8899884223938" lon="10.936261057853699">
				<ele>1228.800048828125</ele>
				<time>2026-06-07T09:16:59Z</time>
			</trkpt>
			<trkpt lat="45.89000117778778" lon="10.936232209205627">
				<ele>1229.0</ele>
				<time>2026-06-07T09:17:18Z</time>
			</trkpt>
			<trkpt lat="45.890002965927124" lon="10.93622899055481">
				<ele>1232.199951171875</ele>
				<time>2026-06-07T09:17:23Z</time>
			</trkpt>
			<trkpt lat="45.8900043964386" lon="10.9362291097641">
				<ele>1233.0</ele>
				<time>2026-06-07T09:17:25Z</time>
			</trkpt>
			<trkpt lat="45.89000391960144" lon="10.936228513717651">
				<ele>1231.199951171875</ele>
				<time>2026-06-07T09:17:30Z</time>
			</trkpt>
			<trkpt lat="45.890002965927124" lon="10.936227440834045">
				<ele>1232.4000244140625</ele>
				<time>2026-06-07T09:17:34Z</time>
			</trkpt>
			<trkpt lat="45.89000177383423" lon="10.936225414276123">
				<ele>1230.4000244140625</ele>
				<time>2026-06-07T09:18:00Z</time>
			</trkpt>
			<trkpt lat="45.88999378681183" lon="10.936237335205078">
				<ele>1231.199951171875</ele>
				<time>2026-06-07T09:18:24Z</time>
			</trkpt>
			<trkpt lat="45.88998007774353" lon="10.936238050460815">
				<ele>1231.0</ele>
				<time>2026-06-07T09:18:45Z</time>
			</trkpt>
			<trkpt lat="45.88997960090637" lon="10.936241388320923">
				<ele>1231.199951171875</ele>
				<time>2026-06-07T09:19:06Z</time>
			</trkpt>
			<trkpt lat="45.88997507095337" lon="10.9362313747406">
				<ele>1230.800048828125</ele>
				<time>2026-06-07T09:19:22Z</time>
			</trkpt>
			<trkpt lat="45.88987922668457" lon="10.9362051486969">
				<ele>1228.5999755859375</ele>
				<time>2026-06-07T09:19:43Z</time>
			</trkpt>
			<trkpt lat="45.88985073566437" lon="10.936209917068481">
				<ele>1226.800048828125</ele>
				<time>2026-06-07T09:20:00Z</time>
			</trkpt>
			<trkpt lat="45.88982307910919" lon="10.93624472618103">
				<ele>1221.800048828125</ele>
				<time>2026-06-07T09:20:18Z</time>
			</trkpt>
			<trkpt lat="45.88982331752777" lon="10.93624472618103">
				<ele>1219.800048828125</ele>
				<time>2026-06-07T09:20:21Z</time>
			</trkpt>
			<trkpt lat="45.88982319831848" lon="10.936246871948242">
				<ele>1225.0</ele>
				<time>2026-06-07T09:20:23Z</time>
			</trkpt>
			<trkpt lat="45.889822363853455" lon="10.936247706413269">
				<ele>1228.4000244140625</ele>
				<time>2026-06-07T09:20:26Z</time>
			</trkpt>
			<trkpt lat="45.8898241519928" lon="10.936255931854248">
				<ele>1225.4000244140625</ele>
				<time>2026-06-07T09:20:42Z</time>
			</trkpt>
			<trkpt lat="45.88981223106384" lon="10.936300277709961">
				<ele>1225.0</ele>
				<time>2026-06-07T09:21:20Z</time>
			</trkpt>
			<trkpt lat="45.88981080055237" lon="10.936302304267883">
				<ele>1225.0</ele>
				<time>2026-06-07T09:21:41Z</time>
			</trkpt>
			<trkpt lat="45.88976514339447" lon="10.936288714408875">
				<ele>1223.5999755859375</ele>
				<time>2026-06-07T09:22:03Z</time>
			</trkpt>
			<trkpt lat="45.8897271156311" lon="10.936251759529114">
				<ele>1222.199951171875</ele>
				<time>2026-06-07T09:22:29Z</time>
			</trkpt>
			<trkpt lat="45.88969171047211" lon="10.93622636795044">
				<ele>1221.199951171875</ele>
				<time>2026-06-07T09:22:51Z</time>
			</trkpt>
			<trkpt lat="45.88967764377594" lon="10.936156034469604">
				<ele>1219.5999755859375</ele>
				<time>2026-06-07T09:23:15Z</time>
			</trkpt>
			<trkpt lat="45.88964891433716" lon="10.93607497215271">
				<ele>1221.800048828125</ele>
				<time>2026-06-07T09:23:34Z</time>
			</trkpt>
			<trkpt lat="45.889647126197815" lon="10.936042189598083">
				<ele>1224.4000244140625</ele>
				<time>2026-06-07T09:23:55Z</time>
			</trkpt>
			<trkpt lat="45.8896564245224" lon="10.936014294624329">
				<ele>1225.800048828125</ele>
				<time>2026-06-07T09:24:10Z</time>
			</trkpt>
			<trkpt lat="45.889631509780884" lon="10.93580710887909">
				<ele>1229.0</ele>
				<time>2026-06-07T09:24:28Z</time>
			</trkpt>
			<trkpt lat="45.889602184295654" lon="10.935662627220154">
				<ele>1232.0</ele>
				<time>2026-06-07T09:24:46Z</time>
			</trkpt>
			<trkpt lat="45.88961088657379" lon="10.935646653175354">
				<ele>1234.5999755859375</ele>
				<time>2026-06-07T09:25:06Z</time>
			</trkpt>
			<trkpt lat="45.889657616615295" lon="10.935603022575378">
				<ele>1236.199951171875</ele>
				<time>2026-06-07T09:25:26Z</time>
			</trkpt>
			<trkpt lat="45.889670968055725" lon="10.935482025146484">
				<ele>1239.199951171875</ele>
				<time>2026-06-07T09:25:45Z</time>
			</trkpt>
			<trkpt lat="45.88966882228851" lon="10.935473918914795">
				<ele>1240.199951171875</ele>
				<time>2026-06-07T09:26:09Z</time>
			</trkpt>
			<trkpt lat="45.8896701335907" lon="10.935481190681458">
				<ele>1239.5999755859375</ele>
				<time>2026-06-07T09:26:31Z</time>
			</trkpt>
			<trkpt lat="45.8896781206131" lon="10.935478925704956">
				<ele>1240.4000244140625</ele>
				<time>2026-06-07T09:26:51Z</time>
			</trkpt>
			<trkpt lat="45.889689803123474" lon="10.935449838638306">
				<ele>1240.199951171875</ele>
				<time>2026-06-07T09:27:10Z</time>
			</trkpt>
			<trkpt lat="45.88969838619232" lon="10.93539047241211">
				<ele>1243.0</ele>
				<time>2026-06-07T09:27:26Z</time>
			</trkpt>
			<trkpt lat="45.8897020816803" lon="10.93539547920227">
				<ele>1245.0</ele>
				<time>2026-06-07T09:27:46Z</time>
			</trkpt>
			<trkpt lat="45.88971960544586" lon="10.935372471809387">
				<ele>1245.5999755859375</ele>
				<time>2026-06-07T09:28:06Z</time>
			</trkpt>
			<trkpt lat="45.88972091674805" lon="10.935339570045471">
				<ele>1247.0</ele>
				<time>2026-06-07T09:28:26Z</time>
			</trkpt>
			<trkpt lat="45.88964128494263" lon="10.935091972351074">
				<ele>1248.800048828125</ele>
				<time>2026-06-07T09:28:49Z</time>
			</trkpt>
			<trkpt lat="45.88961732387543" lon="10.935033082962036">
				<ele>1250.0</ele>
				<time>2026-06-07T09:29:06Z</time>
			</trkpt>
			<trkpt lat="45.88962697982788" lon="10.93501079082489">
				<ele>1249.800048828125</ele>
				<time>2026-06-07T09:29:17Z</time>
			</trkpt>
			<trkpt lat="45.88962972164154" lon="10.935022711753845">
				<ele>1248.0</ele>
				<time>2026-06-07T09:29:43Z</time>
			</trkpt>
			<trkpt lat="45.889636158943176" lon="10.935032606124878">
				<ele>1248.800048828125</ele>
				<time>2026-06-07T09:30:19Z</time>
			</trkpt>
			<trkpt lat="45.889649391174316" lon="10.935041427612305">
				<ele>1248.5999755859375</ele>
				<time>2026-06-07T09:30:52Z</time>
			</trkpt>
			<trkpt lat="45.88966178894043" lon="10.935046434402466">
				<ele>1248.4000244140625</ele>
				<time>2026-06-07T09:31:26Z</time>
			</trkpt>
			<trkpt lat="45.889670968055725" lon="10.935052752494812">
				<ele>1248.199951171875</ele>
				<time>2026-06-07T09:31:57Z</time>
			</trkpt>
			<trkpt lat="45.88965916633606" lon="10.935030579566956">
				<ele>1249.199951171875</ele>
				<time>2026-06-07T09:32:13Z</time>
			</trkpt>
			<trkpt lat="45.889652729034424" lon="10.935036063194275">
				<ele>1249.4000244140625</ele>
				<time>2026-06-07T09:32:39Z</time>
			</trkpt>
			<trkpt lat="45.88965702056885" lon="10.935031056404114">
				<ele>1249.5999755859375</ele>
				<time>2026-06-07T09:32:56Z</time>
			</trkpt>
			<trkpt lat="45.88963162899017" lon="10.935013890266418">
				<ele>1249.5999755859375</ele>
				<time>2026-06-07T09:33:14Z</time>
			</trkpt>
			<trkpt lat="45.88957929611206" lon="10.934932112693787">
				<ele>1250.0</ele>
				<time>2026-06-07T09:33:34Z</time>
			</trkpt>
			<trkpt lat="45.889434933662415" lon="10.934791207313538">
				<ele>1250.800048828125</ele>
				<time>2026-06-07T09:33:53Z</time>
			</trkpt>
			<trkpt lat="45.88934767246246" lon="10.9347482919693">
				<ele>1252.199951171875</ele>
				<time>2026-06-07T09:34:12Z</time>
			</trkpt>
			<trkpt lat="45.88922357559204" lon="10.934648633003235">
				<ele>1253.5999755859375</ele>
				<time>2026-06-07T09:34:33Z</time>
			</trkpt>
			<trkpt lat="45.88918924331665" lon="10.934640049934387">
				<ele>1254.4000244140625</ele>
				<time>2026-06-07T09:34:54Z</time>
			</trkpt>
			<trkpt lat="45.889185190200806" lon="10.934638738632202">
				<ele>1254.5999755859375</ele>
				<time>2026-06-07T09:35:15Z</time>
			</trkpt>
			<trkpt lat="45.88918435573578" lon="10.93463408946991">
				<ele>1254.5999755859375</ele>
				<time>2026-06-07T09:35:39Z</time>
			</trkpt>
			<trkpt lat="45.889182925224304" lon="10.934626817703247">
				<ele>1254.4000244140625</ele>
				<time>2026-06-07T09:35:58Z</time>
			</trkpt>
			<trkpt lat="45.88918459415436" lon="10.934635877609253">
				<ele>1254.5999755859375</ele>
				<time>2026-06-07T09:36:23Z</time>
			</trkpt>
			<trkpt lat="45.88918423652649" lon="10.934646606445312">
				<ele>1254.5999755859375</ele>
				<time>2026-06-07T09:36:47Z</time>
			</trkpt>
			<trkpt lat="45.8891487121582" lon="10.934598088264465">
				<ele>1254.800048828125</ele>
				<time>2026-06-07T09:37:08Z</time>
			</trkpt>
			<trkpt lat="45.889132380485535" lon="10.934572696685791">
				<ele>1254.800048828125</ele>
				<time>2026-06-07T09:37:10Z</time>
			</trkpt>
			<trkpt lat="45.88911199569702" lon="10.934543013572693">
				<ele>1254.800048828125</ele>
				<time>2026-06-07T09:37:13Z</time>
			</trkpt>
			<trkpt lat="45.88891041278839" lon="10.93440067768097">
				<ele>1256.199951171875</ele>
				<time>2026-06-07T09:37:33Z</time>
			</trkpt>
			<trkpt lat="45.888890981674194" lon="10.934372186660767">
				<ele>1256.4000244140625</ele>
				<time>2026-06-07T09:37:36Z</time>
			</trkpt>
			<trkpt lat="45.88884878158569" lon="10.934338331222534">
				<ele>1256.5999755859375</ele>
				<time>2026-06-07T09:37:41Z</time>
			</trkpt>
			<trkpt lat="45.88884150981903" lon="10.93433129787445">
				<ele>1256.5999755859375</ele>
				<time>2026-06-07T09:37:42Z</time>
			</trkpt>
			<trkpt lat="45.888829708099365" lon="10.934327125549316">
				<ele>1256.5999755859375</ele>
				<time>2026-06-07T09:37:43Z</time>
			</trkpt>
			<trkpt lat="45.88881957530975" lon="10.934316515922546">
				<ele>1256.5999755859375</ele>
				<time>2026-06-07T09:37:44Z</time>
			</trkpt>
			<trkpt lat="45.88880681991577" lon="10.934314012527466">
				<ele>1256.800048828125</ele>
				<time>2026-06-07T09:37:45Z</time>
			</trkpt>
			<trkpt lat="45.88879585266113" lon="10.934305906295776">
				<ele>1256.800048828125</ele>
				<time>2026-06-07T09:37:46Z</time>
			</trkpt>
			<trkpt lat="45.888785004615784" lon="10.934296011924744">
				<ele>1256.800048828125</ele>
				<time>2026-06-07T09:37:47Z</time>
			</trkpt>
			<trkpt lat="45.88865077495575" lon="10.934173464775085">
				<ele>1257.0</ele>
				<time>2026-06-07T09:38:00Z</time>
			</trkpt>
			<trkpt lat="45.88863289356232" lon="10.934151768684387">
				<ele>1257.0</ele>
				<time>2026-06-07T09:38:02Z</time>
			</trkpt>
			<trkpt lat="45.88862419128418" lon="10.934141159057617">
				<ele>1257.0</ele>
				<time>2026-06-07T09:38:03Z</time>
			</trkpt>
			<trkpt lat="45.88861680030823" lon="10.934122920036316">
				<ele>1257.199951171875</ele>
				<time>2026-06-07T09:38:04Z</time>
			</trkpt>
			<trkpt lat="45.88860821723938" lon="10.934108853340149">
				<ele>1257.199951171875</ele>
				<time>2026-06-07T09:38:05Z</time>
			</trkpt>
			<trkpt lat="45.88859677314758" lon="10.934100031852722">
				<ele>1257.199951171875</ele>
				<time>2026-06-07T09:38:06Z</time>
			</trkpt>
			<trkpt lat="45.88858771324158" lon="10.934091210365295">
				<ele>1257.199951171875</ele>
				<time>2026-06-07T09:38:07Z</time>
			</trkpt>
			<trkpt lat="45.88854742050171" lon="10.934034824371338">
				<ele>1257.800048828125</ele>
				<time>2026-06-07T09:38:12Z</time>
			</trkpt>
			<trkpt lat="45.8885338306427" lon="10.934011936187744">
				<ele>1258.0</ele>
				<time>2026-06-07T09:38:14Z</time>
			</trkpt>
			<trkpt lat="45.88852655887604" lon="10.934000253677368">
				<ele>1258.0</ele>
				<time>2026-06-07T09:38:15Z</time>
			</trkpt>
			<trkpt lat="45.888458251953125" lon="10.93391764163971">
				<ele>1259.0</ele>
				<time>2026-06-07T09:38:25Z</time>
			</trkpt>
			<trkpt lat="45.88841438293457" lon="10.933842778205872">
				<ele>1260.5999755859375</ele>
				<time>2026-06-07T09:38:33Z</time>
			</trkpt>
			<trkpt lat="45.8883672952652" lon="10.933763980865479">
				<ele>1261.5999755859375</ele>
				<time>2026-06-07T09:38:40Z</time>
			</trkpt>
			<trkpt lat="45.88829064369202" lon="10.933634757995605">
				<ele>1263.4000244140625</ele>
				<time>2026-06-07T09:38:53Z</time>
			</trkpt>
			<trkpt lat="45.88821053504944" lon="10.933502912521362">
				<ele>1264.4000244140625</ele>
				<time>2026-06-07T09:39:06Z</time>
			</trkpt>
			<trkpt lat="45.888126611709595" lon="10.93334972858429">
				<ele>1266.4000244140625</ele>
				<time>2026-06-07T09:39:21Z</time>
			</trkpt>
			<trkpt lat="45.88803958892822" lon="10.933204054832458">
				<ele>1268.5999755859375</ele>
				<time>2026-06-07T09:39:37Z</time>
			</trkpt>
			<trkpt lat="45.887924790382385" lon="10.933023810386658">
				<ele>1270.5999755859375</ele>
				<time>2026-06-07T09:39:57Z</time>
			</trkpt>
			<trkpt lat="45.88791334629059" lon="10.933014750480652">
				<ele>1271.5999755859375</ele>
				<time>2026-06-07T09:40:12Z</time>
			</trkpt>
			<trkpt lat="45.887909293174744" lon="10.932998895645142">
				<ele>1271.5999755859375</ele>
				<time>2026-06-07T09:40:13Z</time>
			</trkpt>
			<trkpt lat="45.88790309429169" lon="10.932982563972473">
				<ele>1271.5999755859375</ele>
				<time>2026-06-07T09:40:14Z</time>
			</trkpt>
			<trkpt lat="45.88787925243378" lon="10.93293809890747">
				<ele>1272.0</ele>
				<time>2026-06-07T09:40:18Z</time>
			</trkpt>
			<trkpt lat="45.887813329696655" lon="10.932835936546326">
				<ele>1272.800048828125</ele>
				<time>2026-06-07T09:40:29Z</time>
			</trkpt>
			<trkpt lat="45.88776397705078" lon="10.932699918746948">
				<ele>1274.4000244140625</ele>
				<time>2026-06-07T09:40:42Z</time>
			</trkpt>
			<trkpt lat="45.88771641254425" lon="10.932540535926819">
				<ele>1276.5999755859375</ele>
				<time>2026-06-07T09:40:55Z</time>
			</trkpt>
			<trkpt lat="45.887677788734436" lon="10.93238651752472">
				<ele>1278.5999755859375</ele>
				<time>2026-06-07T09:41:07Z</time>
			</trkpt>
			<trkpt lat="45.88764524459839" lon="10.932214379310608">
				<ele>1279.199951171875</ele>
				<time>2026-06-07T09:41:20Z</time>
			</trkpt>
			<trkpt lat="45.88753604888916" lon="10.932018876075745">
				<ele>1279.4000244140625</ele>
				<time>2026-06-07T09:41:37Z</time>
			</trkpt>
			<trkpt lat="45.88742673397064" lon="10.931845307350159">
				<ele>1280.199951171875</ele>
				<time>2026-06-07T09:41:52Z</time>
			</trkpt>
			<trkpt lat="45.88737869262695" lon="10.931743264198303">
				<ele>1282.0</ele>
				<time>2026-06-07T09:42:07Z</time>
			</trkpt>
			<trkpt lat="45.887348890304565" lon="10.931698203086853">
				<ele>1281.800048828125</ele>
				<time>2026-06-07T09:42:22Z</time>
			</trkpt>
			<trkpt lat="45.88733422756195" lon="10.931676864624023">
				<ele>1281.800048828125</ele>
				<time>2026-06-07T09:42:24Z</time>
			</trkpt>
			<trkpt lat="45.887327790260315" lon="10.931663036346436">
				<ele>1281.800048828125</ele>
				<time>2026-06-07T09:42:25Z</time>
			</trkpt>
			<trkpt lat="45.88732290267944" lon="10.931649804115295">
				<ele>1281.800048828125</ele>
				<time>2026-06-07T09:42:26Z</time>
			</trkpt>
			<trkpt lat="45.887317180633545" lon="10.931636929512024">
				<ele>1281.800048828125</ele>
				<time>2026-06-07T09:42:27Z</time>
			</trkpt>
			<trkpt lat="45.88730978965759" lon="10.931623458862305">
				<ele>1281.5999755859375</ele>
				<time>2026-06-07T09:42:28Z</time>
			</trkpt>
			<trkpt lat="45.88730204105377" lon="10.931611061096191">
				<ele>1281.5999755859375</ele>
				<time>2026-06-07T09:42:29Z</time>
			</trkpt>
			<trkpt lat="45.88729631900787" lon="10.931596398353577">
				<ele>1281.5999755859375</ele>
				<time>2026-06-07T09:42:30Z</time>
			</trkpt>
			<trkpt lat="45.88729178905487" lon="10.931581616401672">
				<ele>1281.5999755859375</ele>
				<time>2026-06-07T09:42:31Z</time>
			</trkpt>
			<trkpt lat="45.88728702068329" lon="10.9315687417984">
				<ele>1281.4000244140625</ele>
				<time>2026-06-07T09:42:32Z</time>
			</trkpt>
			<trkpt lat="45.88726186752319" lon="10.931519746780396">
				<ele>1281.4000244140625</ele>
				<time>2026-06-07T09:42:36Z</time>
			</trkpt>
			<trkpt lat="45.887255907058716" lon="10.931505918502808">
				<ele>1281.199951171875</ele>
				<time>2026-06-07T09:42:37Z</time>
			</trkpt>
			<trkpt lat="45.88716948032379" lon="10.931324481964111">
				<ele>1281.199951171875</ele>
				<time>2026-06-07T09:42:52Z</time>
			</trkpt>
			<trkpt lat="45.88711154460907" lon="10.931129693984985">
				<ele>1281.199951171875</ele>
				<time>2026-06-07T09:43:05Z</time>
			</trkpt>
			<trkpt lat="45.887104868888855" lon="10.931114792823792">
				<ele>1281.199951171875</ele>
				<time>2026-06-07T09:43:06Z</time>
			</trkpt>
			<trkpt lat="45.88705515861511" lon="10.931037068367004">
				<ele>1281.0</ele>
				<time>2026-06-07T09:43:19Z</time>
			</trkpt>
			<trkpt lat="45.88707113265991" lon="10.931038856506348">
				<ele>1280.800048828125</ele>
				<time>2026-06-07T09:43:57Z</time>
			</trkpt>
			<trkpt lat="45.88707745075226" lon="10.93103551864624">
				<ele>1280.199951171875</ele>
				<time>2026-06-07T09:44:30Z</time>
			</trkpt>
			<trkpt lat="45.8870370388031" lon="10.930920720100403">
				<ele>1280.199951171875</ele>
				<time>2026-06-07T09:44:42Z</time>
			</trkpt>
			<trkpt lat="45.88702869415283" lon="10.93090295791626">
				<ele>1280.199951171875</ele>
				<time>2026-06-07T09:44:43Z</time>
			</trkpt>
			<trkpt lat="45.88702166080475" lon="10.93088960647583">
				<ele>1280.199951171875</ele>
				<time>2026-06-07T09:44:44Z</time>
			</trkpt>
			<trkpt lat="45.88695800304413" lon="10.930810570716858">
				<ele>1281.199951171875</ele>
				<time>2026-06-07T09:45:01Z</time>
			</trkpt>
			<trkpt lat="45.88691997528076" lon="10.93075978755951">
				<ele>1281.199951171875</ele>
				<time>2026-06-07T09:45:09Z</time>
			</trkpt>
			<trkpt lat="45.886892914772034" lon="10.930733680725098">
				<ele>1279.4000244140625</ele>
				<time>2026-06-07T09:45:21Z</time>
			</trkpt>
			<trkpt lat="45.8868545293808" lon="10.930716395378113">
				<ele>1281.199951171875</ele>
				<time>2026-06-07T09:46:04Z</time>
			</trkpt>
			<trkpt lat="45.886871337890625" lon="10.93072247505188">
				<ele>1283.800048828125</ele>
				<time>2026-06-07T09:46:30Z</time>
			</trkpt>
			<trkpt lat="45.886812925338745" lon="10.930620789527893">
				<ele>1283.0</ele>
				<time>2026-06-07T09:46:42Z</time>
			</trkpt>
			<trkpt lat="45.88675928115845" lon="10.930533528327942">
				<ele>1283.199951171875</ele>
				<time>2026-06-07T09:46:49Z</time>
			</trkpt>
			<trkpt lat="45.88675045967102" lon="10.930522203445435">
				<ele>1283.4000244140625</ele>
				<time>2026-06-07T09:46:50Z</time>
			</trkpt>
			<trkpt lat="45.88674354553223" lon="10.930508613586426">
				<ele>1283.4000244140625</ele>
				<time>2026-06-07T09:46:51Z</time>
			</trkpt>
			<trkpt lat="45.88673532009125" lon="10.930497407913208">
				<ele>1283.5999755859375</ele>
				<time>2026-06-07T09:46:52Z</time>
			</trkpt>
			<trkpt lat="45.88672661781311" lon="10.93048870563507">
				<ele>1283.800048828125</ele>
				<time>2026-06-07T09:46:53Z</time>
			</trkpt>
			<trkpt lat="45.88671898841858" lon="10.930477619171143">
				<ele>1283.800048828125</ele>
				<time>2026-06-07T09:46:54Z</time>
			</trkpt>
			<trkpt lat="45.8867130279541" lon="10.930463790893555">
				<ele>1284.0</ele>
				<time>2026-06-07T09:46:55Z</time>
			</trkpt>
			<trkpt lat="45.88670539855957" lon="10.93045163154602">
				<ele>1284.0</ele>
				<time>2026-06-07T09:46:56Z</time>
			</trkpt>
			<trkpt lat="45.88669550418854" lon="10.930439949035645">
				<ele>1284.199951171875</ele>
				<time>2026-06-07T09:46:57Z</time>
			</trkpt>
			<trkpt lat="45.886677384376526" lon="10.930416703224182">
				<ele>1284.4000244140625</ele>
				<time>2026-06-07T09:46:59Z</time>
			</trkpt>
			<trkpt lat="45.88667094707489" lon="10.930403351783752">
				<ele>1284.5999755859375</ele>
				<time>2026-06-07T09:47:00Z</time>
			</trkpt>
			<trkpt lat="45.886661887168884" lon="10.930391550064087">
				<ele>1284.800048828125</ele>
				<time>2026-06-07T09:47:01Z</time>
			</trkpt>
			<trkpt lat="45.88665199279785" lon="10.930381774902344">
				<ele>1284.800048828125</ele>
				<time>2026-06-07T09:47:02Z</time>
			</trkpt>
			<trkpt lat="45.88664126396179" lon="10.930371522903442">
				<ele>1285.0</ele>
				<time>2026-06-07T09:47:03Z</time>
			</trkpt>
			<trkpt lat="45.886629700660706" lon="10.930360198020935">
				<ele>1285.0</ele>
				<time>2026-06-07T09:47:04Z</time>
			</trkpt>
			<trkpt lat="45.8865749835968" lon="10.930296897888184">
				<ele>1285.5999755859375</ele>
				<time>2026-06-07T09:47:10Z</time>
			</trkpt>
			<trkpt lat="45.88656532764435" lon="10.930286169052124">
				<ele>1285.800048828125</ele>
				<time>2026-06-07T09:47:11Z</time>
			</trkpt>
			<trkpt lat="45.88644003868103" lon="10.93008542060852">
				<ele>1286.4000244140625</ele>
				<time>2026-06-07T09:47:27Z</time>
			</trkpt>
			<trkpt lat="45.886356592178345" lon="10.929906368255615">
				<ele>1286.800048828125</ele>
				<time>2026-06-07T09:47:39Z</time>
			</trkpt>
			<trkpt lat="45.88633358478546" lon="10.929846048355103">
				<ele>1287.0</ele>
				<time>2026-06-07T09:47:43Z</time>
			</trkpt>
			<trkpt lat="45.88631737232208" lon="10.929823875427246">
				<ele>1287.199951171875</ele>
				<time>2026-06-07T09:47:45Z</time>
			</trkpt>
			<trkpt lat="45.886311769485474" lon="10.929811120033264">
				<ele>1287.4000244140625</ele>
				<time>2026-06-07T09:47:46Z</time>
			</trkpt>
			<trkpt lat="45.886306166648865" lon="10.929798364639282">
				<ele>1287.4000244140625</ele>
				<time>2026-06-07T09:47:47Z</time>
			</trkpt>
			<trkpt lat="45.88629937171936" lon="10.92978549003601">
				<ele>1287.4000244140625</ele>
				<time>2026-06-07T09:47:48Z</time>
			</trkpt>
			<trkpt lat="45.88629150390625" lon="10.929772973060608">
				<ele>1287.5999755859375</ele>
				<time>2026-06-07T09:47:49Z</time>
			</trkpt>
			<trkpt lat="45.886284708976746" lon="10.929759621620178">
				<ele>1287.5999755859375</ele>
				<time>2026-06-07T09:47:50Z</time>
			</trkpt>
			<trkpt lat="45.88623881340027" lon="10.929677486419678">
				<ele>1287.5999755859375</ele>
				<time>2026-06-07T09:48:04Z</time>
			</trkpt>
			<trkpt lat="45.8861780166626" lon="10.929676055908203">
				<ele>1287.0</ele>
				<time>2026-06-07T09:48:24Z</time>
			</trkpt>
			<trkpt lat="45.88614273071289" lon="10.929672956466675">
				<ele>1286.0</ele>
				<time>2026-06-07T09:48:27Z</time>
			</trkpt>
			<trkpt lat="45.886131048202515" lon="10.929669499397278">
				<ele>1286.0</ele>
				<time>2026-06-07T09:48:28Z</time>
			</trkpt>
			<trkpt lat="45.886120438575745" lon="10.92966604232788">
				<ele>1285.800048828125</ele>
				<time>2026-06-07T09:48:29Z</time>
			</trkpt>
			<trkpt lat="45.885977029800415" lon="10.929609775543213">
				<ele>1284.5999755859375</ele>
				<time>2026-06-07T09:48:43Z</time>
			</trkpt>
			<trkpt lat="45.885849356651306" lon="10.92959439754486">
				<ele>1282.4000244140625</ele>
				<time>2026-06-07T09:48:59Z</time>
			</trkpt>
			<trkpt lat="45.88582122325897" lon="10.929696440696716">
				<ele>1279.5999755859375</ele>
				<time>2026-06-07T09:49:15Z</time>
			</trkpt>
			<trkpt lat="45.88580131530762" lon="10.929651975631714">
				<ele>1277.5999755859375</ele>
				<time>2026-06-07T09:49:41Z</time>
			</trkpt>
			<trkpt lat="45.885780930519104" lon="10.929611206054688">
				<ele>1277.199951171875</ele>
				<time>2026-06-07T09:49:48Z</time>
			</trkpt>
			<trkpt lat="45.88577318191528" lon="10.929598450660706">
				<ele>1277.199951171875</ele>
				<time>2026-06-07T09:49:49Z</time>
			</trkpt>
			<trkpt lat="45.88574457168579" lon="10.92958378791809">
				<ele>1276.5999755859375</ele>
				<time>2026-06-07T09:50:04Z</time>
			</trkpt>
			<trkpt lat="45.885751724243164" lon="10.929590463638306">
				<ele>1276.5999755859375</ele>
				<time>2026-06-07T09:50:33Z</time>
			</trkpt>
			<trkpt lat="45.88575327396393" lon="10.929578423500061">
				<ele>1276.4000244140625</ele>
				<time>2026-06-07T09:50:58Z</time>
			</trkpt>
			<trkpt lat="45.885791659355164" lon="10.929680109024048">
				<ele>1276.4000244140625</ele>
				<time>2026-06-07T09:51:15Z</time>
			</trkpt>
			<trkpt lat="45.885810136795044" lon="10.929723739624023">
				<ele>1276.5999755859375</ele>
				<time>2026-06-07T09:51:31Z</time>
			</trkpt>
			<trkpt lat="45.88588213920593" lon="10.929798603057861">
				<ele>1276.5999755859375</ele>
				<time>2026-06-07T09:51:46Z</time>
			</trkpt>
			<trkpt lat="45.88592743873596" lon="10.929801225662231">
				<ele>1276.5999755859375</ele>
				<time>2026-06-07T09:52:06Z</time>
			</trkpt>
			<trkpt lat="45.88591194152832" lon="10.929781079292297">
				<ele>1274.5999755859375</ele>
				<time>2026-06-07T09:52:35Z</time>
			</trkpt>
			<trkpt lat="45.88594472408295" lon="10.929898262023926">
				<ele>1272.0</ele>
				<time>2026-06-07T09:53:10Z</time>
			</trkpt>
			<trkpt lat="45.88594973087311" lon="10.929919958114624">
				<ele>1275.199951171875</ele>
				<time>2026-06-07T09:53:15Z</time>
			</trkpt>
			<trkpt lat="45.885679960250854" lon="10.93007481098175">
				<ele>1272.0</ele>
				<time>2026-06-07T09:53:24Z</time>
			</trkpt>
			<trkpt lat="45.885738134384155" lon="10.930013418197632">
				<ele>1268.800048828125</ele>
				<time>2026-06-07T09:53:38Z</time>
			</trkpt>
			<trkpt lat="45.88570749759674" lon="10.929896831512451">
				<ele>1239.5999755859375</ele>
				<time>2026-06-07T09:54:07Z</time>
			</trkpt>
			<trkpt lat="45.88568437099457" lon="10.929876208305359">
				<ele>1239.5999755859375</ele>
				<time>2026-06-07T09:54:08Z</time>
			</trkpt>
			<trkpt lat="45.885671496391296" lon="10.929857611656189">
				<ele>1239.4000244140625</ele>
				<time>2026-06-07T09:54:39Z</time>
			</trkpt>
			<trkpt lat="45.88566052913666" lon="10.929831624031067">
				<ele>1239.4000244140625</ele>
				<time>2026-06-07T09:54:41Z</time>
			</trkpt>
			<trkpt lat="45.88566243648529" lon="10.929836988449097">
				<ele>1239.4000244140625</ele>
				<time>2026-06-07T09:54:42Z</time>
			</trkpt>
			<trkpt lat="45.8856395483017" lon="10.929783582687378">
				<ele>1239.199951171875</ele>
				<time>2026-06-07T09:54:43Z</time>
			</trkpt>
			<trkpt lat="45.88583266735077" lon="10.929789066314697">
				<ele>1239.0</ele>
				<time>2026-06-07T09:54:55Z</time>
			</trkpt>
			<trkpt lat="45.88578474521637" lon="10.929547667503357">
				<ele>1239.0</ele>
				<time>2026-06-07T09:55:09Z</time>
			</trkpt>
			<trkpt lat="45.88574147224426" lon="10.929513692855835">
				<ele>1238.4000244140625</ele>
				<time>2026-06-07T09:55:49Z</time>
			</trkpt>
			<trkpt lat="45.88573777675629" lon="10.929494380950928">
				<ele>1238.4000244140625</ele>
				<time>2026-06-07T09:55:53Z</time>
			</trkpt>
			<trkpt lat="45.88573920726776" lon="10.929486870765686">
				<ele>1237.800048828125</ele>
				<time>2026-06-07T09:56:24Z</time>
			</trkpt>
			<trkpt lat="45.88574028015137" lon="10.92948603630066">
				<ele>1238.5999755859375</ele>
				<time>2026-06-07T09:56:53Z</time>
			</trkpt>
			<trkpt lat="45.885743498802185" lon="10.929489135742188">
				<ele>1235.199951171875</ele>
				<time>2026-06-07T09:57:04Z</time>
			</trkpt>
			<trkpt lat="45.88568341732025" lon="10.929972052574158">
				<ele>1234.4000244140625</ele>
				<time>2026-06-07T09:57:06Z</time>
			</trkpt>
			<trkpt lat="45.88573443889618" lon="10.92986261844635">
				<ele>1237.4000244140625</ele>
				<time>2026-06-07T09:57:08Z</time>
			</trkpt>
			<trkpt lat="45.88590347766876" lon="10.929937243461609">
				<ele>1239.199951171875</ele>
				<time>2026-06-07T09:57:44Z</time>
			</trkpt>
			<trkpt lat="45.88595926761627" lon="10.929986119270325">
				<ele>1239.199951171875</ele>
				<time>2026-06-07T09:58:05Z</time>
			</trkpt>
			<trkpt lat="45.886051654815674" lon="10.929993987083435">
				<ele>1241.199951171875</ele>
				<time>2026-06-07T09:58:28Z</time>
			</trkpt>
			<trkpt lat="45.88606834411621" lon="10.930017232894897">
				<ele>1244.199951171875</ele>
				<time>2026-06-07T09:58:43Z</time>
			</trkpt>
			<trkpt lat="45.88607859611511" lon="10.930039405822754">
				<ele>1247.0</ele>
				<time>2026-06-07T09:59:01Z</time>
			</trkpt>
			<trkpt lat="45.88610124588013" lon="10.930105447769165">
				<ele>1247.0</ele>
				<time>2026-06-07T09:59:22Z</time>
			</trkpt>
			<trkpt lat="45.88614749908447" lon="10.930221438407898">
				<ele>1247.199951171875</ele>
				<time>2026-06-07T09:59:24Z</time>
			</trkpt>
			<trkpt lat="45.88623666763306" lon="10.930416226387024">
				<ele>1247.0</ele>
				<time>2026-06-07T09:59:29Z</time>
			</trkpt>
			<trkpt lat="45.88624322414398" lon="10.930595755577087">
				<ele>1246.4000244140625</ele>
				<time>2026-06-07T09:59:43Z</time>
			</trkpt>
			<trkpt lat="45.88625502586365" lon="10.930635690689087">
				<ele>1246.0</ele>
				<time>2026-06-07T10:00:05Z</time>
			</trkpt>
			<trkpt lat="45.88627374172211" lon="10.930580854415894">
				<ele>1245.4000244140625</ele>
				<time>2026-06-07T10:00:21Z</time>
			</trkpt>
			<trkpt lat="45.88624155521393" lon="10.93040144443512">
				<ele>1245.0</ele>
				<time>2026-06-07T10:00:41Z</time>
			</trkpt>
			<trkpt lat="45.88623309135437" lon="10.93038558959961">
				<ele>1246.0</ele>
				<time>2026-06-07T10:01:06Z</time>
			</trkpt>
			<trkpt lat="45.886160254478455" lon="10.930177211761475">
				<ele>1246.800048828125</ele>
				<time>2026-06-07T10:01:20Z</time>
			</trkpt>
			<trkpt lat="45.886021971702576" lon="10.929893374443054">
				<ele>1247.0</ele>
				<time>2026-06-07T10:01:21Z</time>
			</trkpt>
			<trkpt lat="45.88597583770752" lon="10.92982041835785">
				<ele>1247.4000244140625</ele>
				<time>2026-06-07T10:01:37Z</time>
			</trkpt>
			<trkpt lat="45.885953307151794" lon="10.929798007011414">
				<ele>1248.800048828125</ele>
				<time>2026-06-07T10:01:59Z</time>
			</trkpt>
			<trkpt lat="45.88590335845947" lon="10.929700255393982">
				<ele>1249.4000244140625</ele>
				<time>2026-06-07T10:02:12Z</time>
			</trkpt>
			<trkpt lat="45.88589084148407" lon="10.929695010185242">
				<ele>1249.4000244140625</ele>
				<time>2026-06-07T10:02:31Z</time>
			</trkpt>
			<trkpt lat="45.88587963581085" lon="10.929686188697815">
				<ele>1249.800048828125</ele>
				<time>2026-06-07T10:02:51Z</time>
			</trkpt>
			<trkpt lat="45.885886907577515" lon="10.929592847824097">
				<ele>1249.800048828125</ele>
				<time>2026-06-07T10:02:52Z</time>
			</trkpt>
			<trkpt lat="45.88602042198181" lon="10.92963445186615">
				<ele>1249.800048828125</ele>
				<time>2026-06-07T10:02:53Z</time>
			</trkpt>
			<trkpt lat="45.88611137866974" lon="10.929697513580322">
				<ele>1250.5999755859375</ele>
				<time>2026-06-07T10:03:08Z</time>
			</trkpt>
			<trkpt lat="45.88619530200958" lon="10.929685831069946">
				<ele>1253.800048828125</ele>
				<time>2026-06-07T10:03:23Z</time>
			</trkpt>
			<trkpt lat="45.886225938797" lon="10.929630160331726">
				<ele>1256.0</ele>
				<time>2026-06-07T10:03:34Z</time>
			</trkpt>
			<trkpt lat="45.88623249530792" lon="10.929616451263428">
				<ele>1257.800048828125</ele>
				<time>2026-06-07T10:03:43Z</time>
			</trkpt>
			<trkpt lat="45.886239647865295" lon="10.929601788520813">
				<ele>1258.5999755859375</ele>
				<time>2026-06-07T10:03:49Z</time>
			</trkpt>
			<trkpt lat="45.88632774353027" lon="10.929491996765137">
				<ele>1258.800048828125</ele>
				<time>2026-06-07T10:03:50Z</time>
			</trkpt>
			<trkpt lat="45.88635277748108" lon="10.92946970462799">
				<ele>1259.0</ele>
				<time>2026-06-07T10:03:51Z</time>
			</trkpt>
			<trkpt lat="45.886372089385986" lon="10.929460883140564">
				<ele>1259.0</ele>
				<time>2026-06-07T10:04:05Z</time>
			</trkpt>
			<trkpt lat="45.886353969573975" lon="10.929489254951477">
				<ele>1258.4000244140625</ele>
				<time>2026-06-07T10:04:31Z</time>
			</trkpt>
			<trkpt lat="45.886356711387634" lon="10.929489135742188">
				<ele>1258.4000244140625</ele>
				<time>2026-06-07T10:04:50Z</time>
			</trkpt>
			<trkpt lat="45.88635194301605" lon="10.929481029510498">
				<ele>1258.4000244140625</ele>
				<time>2026-06-07T10:05:14Z</time>
			</trkpt>
			<trkpt lat="45.88636493682861" lon="10.929455518722534">
				<ele>1258.0</ele>
				<time>2026-06-07T10:05:35Z</time>
			</trkpt>
			<trkpt lat="45.88636672496796" lon="10.929436087608337">
				<ele>1257.4000244140625</ele>
				<time>2026-06-07T10:06:25Z</time>
			</trkpt>
			<trkpt lat="45.886361479759216" lon="10.929405331611633">
				<ele>1256.4000244140625</ele>
				<time>2026-06-07T10:06:59Z</time>
			</trkpt>
			<trkpt lat="45.88636028766632" lon="10.929413795471191">
				<ele>1256.0</ele>
				<time>2026-06-07T10:07:08Z</time>
			</trkpt>
			<trkpt lat="45.88636934757233" lon="10.929413676261902">
				<ele>1255.4000244140625</ele>
				<time>2026-06-07T10:07:57Z</time>
			</trkpt>
			<trkpt lat="45.88635814189911" lon="10.929423928260803">
				<ele>1255.4000244140625</ele>
				<time>2026-06-07T10:08:34Z</time>
			</trkpt>
			<trkpt lat="45.886385917663574" lon="10.929432988166809">
				<ele>1255.800048828125</ele>
				<time>2026-06-07T10:09:17Z</time>
			</trkpt>
			<trkpt lat="45.88640999794006" lon="10.929391741752625">
				<ele>1256.0</ele>
				<time>2026-06-07T10:09:54Z</time>
			</trkpt>
			<trkpt lat="45.886505007743835" lon="10.92935335636139">
				<ele>1255.5999755859375</ele>
				<time>2026-06-07T10:10:37Z</time>
			</trkpt>
			<trkpt lat="45.88658857345581" lon="10.929277300834656">
				<ele>1257.199951171875</ele>
				<time>2026-06-07T10:10:57Z</time>
			</trkpt>
			<trkpt lat="45.88673198223114" lon="10.929176926612854">
				<ele>1257.5999755859375</ele>
				<time>2026-06-07T10:11:12Z</time>
			</trkpt>
			<trkpt lat="45.88684105873108" lon="10.929094433784485">
				<ele>1256.0</ele>
				<time>2026-06-07T10:11:23Z</time>
			</trkpt>
			<trkpt lat="45.88685321807861" lon="10.92908775806427">
				<ele>1253.0</ele>
				<time>2026-06-07T10:11:37Z</time>
			</trkpt>
			<trkpt lat="45.88686549663544" lon="10.929081201553345">
				<ele>1251.4000244140625</ele>
				<time>2026-06-07T10:11:49Z</time>
			</trkpt>
			<trkpt lat="45.886876940727234" lon="10.929073810577393">
				<ele>1251.199951171875</ele>
				<time>2026-06-07T10:11:50Z</time>
			</trkpt>
			<trkpt lat="45.88688611984253" lon="10.929067492485046">
				<ele>1251.0</ele>
				<time>2026-06-07T10:11:51Z</time>
			</trkpt>
			<trkpt lat="45.88705658912659" lon="10.928960919380188">
				<ele>1251.0</ele>
				<time>2026-06-07T10:11:52Z</time>
			</trkpt>
			<trkpt lat="45.887091636657715" lon="10.92889928817749">
				<ele>1250.800048828125</ele>
				<time>2026-06-07T10:11:53Z</time>
			</trkpt>
			<trkpt lat="45.88709628582001" lon="10.928879499435425">
				<ele>1248.0</ele>
				<time>2026-06-07T10:12:11Z</time>
			</trkpt>
			<trkpt lat="45.88713359832764" lon="10.928697228431702">
				<ele>1247.199951171875</ele>
				<time>2026-06-07T10:12:17Z</time>
			</trkpt>
			<trkpt lat="45.88713312149048" lon="10.928680300712585">
				<ele>1247.0</ele>
				<time>2026-06-07T10:12:18Z</time>
			</trkpt>
			<trkpt lat="45.887133836746216" lon="10.928664565086365">
				<ele>1245.0</ele>
				<time>2026-06-07T10:12:29Z</time>
			</trkpt>
			<trkpt lat="45.887136816978455" lon="10.928651094436646">
				<ele>1244.800048828125</ele>
				<time>2026-06-07T10:12:30Z</time>
			</trkpt>
			<trkpt lat="45.88714003562927" lon="10.928479552268982">
				<ele>1244.5999755859375</ele>
				<time>2026-06-07T10:12:31Z</time>
			</trkpt>
			<trkpt lat="45.887136816978455" lon="10.928459405899048">
				<ele>1244.4000244140625</ele>
				<time>2026-06-07T10:12:32Z</time>
			</trkpt>
			<trkpt lat="45.88711082935333" lon="10.928284406661987">
				<ele>1243.0</ele>
				<time>2026-06-07T10:12:43Z</time>
			</trkpt>
			<trkpt lat="45.887096643447876" lon="10.9282066822052">
				<ele>1243.0</ele>
				<time>2026-06-07T10:12:44Z</time>
			</trkpt>
			<trkpt lat="45.88709306716919" lon="10.9281907081604">
				<ele>1243.4000244140625</ele>
				<time>2026-06-07T10:12:56Z</time>
			</trkpt>
			<trkpt lat="45.88709115982056" lon="10.928174614906311">
				<ele>1244.0</ele>
				<time>2026-06-07T10:13:01Z</time>
			</trkpt>
			<trkpt lat="45.88709008693695" lon="10.928159952163696">
				<ele>1244.199951171875</ele>
				<time>2026-06-07T10:13:02Z</time>
			</trkpt>
			<trkpt lat="45.88709318637848" lon="10.928129434585571">
				<ele>1244.4000244140625</ele>
				<time>2026-06-07T10:13:03Z</time>
			</trkpt>
			<trkpt lat="45.887096762657166" lon="10.928112387657166">
				<ele>1244.5999755859375</ele>
				<time>2026-06-07T10:13:04Z</time>
			</trkpt>
			<trkpt lat="45.8870964050293" lon="10.928095817565918">
				<ele>1244.800048828125</ele>
				<time>2026-06-07T10:13:06Z</time>
			</trkpt>
			<trkpt lat="45.8870530128479" lon="10.927819728851318">
				<ele>1245.0</ele>
				<time>2026-06-07T10:13:07Z</time>
			</trkpt>
			<trkpt lat="45.88704872131348" lon="10.927708506584167">
				<ele>1245.0</ele>
				<time>2026-06-07T10:13:08Z</time>
			</trkpt>
			<trkpt lat="45.88704788684845" lon="10.927691221237183">
				<ele>1245.199951171875</ele>
				<time>2026-06-07T10:13:25Z</time>
			</trkpt>
			<trkpt lat="45.88706195354462" lon="10.92745316028595">
				<ele>1245.4000244140625</ele>
				<time>2026-06-07T10:13:32Z</time>
			</trkpt>
			<trkpt lat="45.8870564699173" lon="10.92743968963623">
				<ele>1245.4000244140625</ele>
				<time>2026-06-07T10:13:33Z</time>
			</trkpt>
			<trkpt lat="45.88703513145447" lon="10.927393317222595">
				<ele>1245.800048828125</ele>
				<time>2026-06-07T10:13:50Z</time>
			</trkpt>
			<trkpt lat="45.88702082633972" lon="10.927286863327026">
				<ele>1245.800048828125</ele>
				<time>2026-06-07T10:13:51Z</time>
			</trkpt>
			<trkpt lat="45.88702046871185" lon="10.927271842956543">
				<ele>1246.0</ele>
				<time>2026-06-07T10:13:55Z</time>
			</trkpt>
			<trkpt lat="45.88698971271515" lon="10.927137613296509">
				<ele>1247.0</ele>
				<time>2026-06-07T10:14:03Z</time>
			</trkpt>
			<trkpt lat="45.88697338104248" lon="10.927146434783936">
				<ele>1247.0</ele>
				<time>2026-06-07T10:14:04Z</time>
			</trkpt>
			<trkpt lat="45.886993169784546" lon="10.927140474319458">
				<ele>1248.199951171875</ele>
				<time>2026-06-07T10:14:16Z</time>
			</trkpt>
			<trkpt lat="45.88698768615723" lon="10.927136659622192">
				<ele>1248.800048828125</ele>
				<time>2026-06-07T10:14:36Z</time>
			</trkpt>
			<trkpt lat="45.88701355457306" lon="10.927127599716187">
				<ele>1248.4000244140625</ele>
				<time>2026-06-07T10:14:58Z</time>
			</trkpt>
			<trkpt lat="45.8870552778244" lon="10.927106022834778">
				<ele>1250.0</ele>
				<time>2026-06-07T10:15:08Z</time>
			</trkpt>
			<trkpt lat="45.88707673549652" lon="10.927040457725525">
				<ele>1247.199951171875</ele>
				<time>2026-06-07T10:15:26Z</time>
			</trkpt>
			<trkpt lat="45.88708186149597" lon="10.927024602890015">
				<ele>1248.5999755859375</ele>
				<time>2026-06-07T10:17:00Z</time>
			</trkpt>
			<trkpt lat="45.88708448410034" lon="10.926916718482971">
				<ele>1248.4000244140625</ele>
				<time>2026-06-07T10:17:06Z</time>
			</trkpt>
			<trkpt lat="45.88708257675171" lon="10.926736831665039">
				<ele>1248.4000244140625</ele>
				<time>2026-06-07T10:17:07Z</time>
			</trkpt>
			<trkpt lat="45.88709998130798" lon="10.926669955253601">
				<ele>1247.4000244140625</ele>
				<time>2026-06-07T10:17:15Z</time>
			</trkpt>
			<trkpt lat="45.88710796833038" lon="10.926661372184753">
				<ele>1247.4000244140625</ele>
				<time>2026-06-07T10:17:29Z</time>
			</trkpt>
			<trkpt lat="45.88711619377136" lon="10.926651358604431">
				<ele>1247.199951171875</ele>
				<time>2026-06-07T10:17:35Z</time>
			</trkpt>
			<trkpt lat="45.88712430000305" lon="10.926640152931213">
				<ele>1247.199951171875</ele>
				<time>2026-06-07T10:17:36Z</time>
			</trkpt>
			<trkpt lat="45.887131571769714" lon="10.926626920700073">
				<ele>1247.0</ele>
				<time>2026-06-07T10:17:37Z</time>
			</trkpt>
			<trkpt lat="45.88722336292267" lon="10.926526308059692">
				<ele>1247.0</ele>
				<time>2026-06-07T10:17:38Z</time>
			</trkpt>
			<trkpt lat="45.88723540306091" lon="10.926522254943848">
				<ele>1246.800048828125</ele>
				<time>2026-06-07T10:17:39Z</time>
			</trkpt>
			<trkpt lat="45.88722026348114" lon="10.926504611968994">
				<ele>1245.5999755859375</ele>
				<time>2026-06-07T10:17:51Z</time>
			</trkpt>
			<trkpt lat="45.8871830701828" lon="10.926469445228577">
				<ele>1245.4000244140625</ele>
				<time>2026-06-07T10:17:52Z</time>
			</trkpt>
			<trkpt lat="45.8872275352478" lon="10.92653477191925">
				<ele>1243.800048828125</ele>
				<time>2026-06-07T10:18:03Z</time>
			</trkpt>
			<trkpt lat="45.88727152347565" lon="10.926527857780457">
				<ele>1244.4000244140625</ele>
				<time>2026-06-07T10:18:19Z</time>
			</trkpt>
			<trkpt lat="45.88728332519531" lon="10.926522970199585">
				<ele>1243.800048828125</ele>
				<time>2026-06-07T10:18:38Z</time>
			</trkpt>
			<trkpt lat="45.887295842170715" lon="10.926517844200134">
				<ele>1243.199951171875</ele>
				<time>2026-06-07T10:18:47Z</time>
			</trkpt>
			<trkpt lat="45.88739466667175" lon="10.926401019096375">
				<ele>1243.199951171875</ele>
				<time>2026-06-07T10:18:48Z</time>
			</trkpt>
			<trkpt lat="45.88744819164276" lon="10.926270484924316">
				<ele>1243.0</ele>
				<time>2026-06-07T10:18:49Z</time>
			</trkpt>
			<trkpt lat="45.88748836517334" lon="10.926220536231995">
				<ele>1242.5999755859375</ele>
				<time>2026-06-07T10:19:03Z</time>
			</trkpt>
			<trkpt lat="45.8874796628952" lon="10.926229357719421">
				<ele>1244.4000244140625</ele>
				<time>2026-06-07T10:19:18Z</time>
			</trkpt>
			<trkpt lat="45.88742792606354" lon="10.926335453987122">
				<ele>1245.4000244140625</ele>
				<time>2026-06-07T10:19:38Z</time>
			</trkpt>
			<trkpt lat="45.8874192237854" lon="10.926347613334656">
				<ele>1245.199951171875</ele>
				<time>2026-06-07T10:20:13Z</time>
			</trkpt>
			<trkpt lat="45.887362122535706" lon="10.926451683044434">
				<ele>1244.5999755859375</ele>
				<time>2026-06-07T10:20:30Z</time>
			</trkpt>
			<trkpt lat="45.88732576370239" lon="10.926483869552612">
				<ele>1244.5999755859375</ele>
				<time>2026-06-07T10:20:31Z</time>
			</trkpt>
			<trkpt lat="45.887359738349915" lon="10.926543831825256">
				<ele>1243.199951171875</ele>
				<time>2026-06-07T10:20:48Z</time>
			</trkpt>
			<trkpt lat="45.887369990348816" lon="10.926552295684814">
				<ele>1243.199951171875</ele>
				<time>2026-06-07T10:21:04Z</time>
			</trkpt>
			<trkpt lat="45.887399435043335" lon="10.92657196521759">
				<ele>1242.0</ele>
				<time>2026-06-07T10:21:13Z</time>
			</trkpt>
			<trkpt lat="45.88743579387665" lon="10.926586151123047">
				<ele>1241.800048828125</ele>
				<time>2026-06-07T10:21:14Z</time>
			</trkpt>
			<trkpt lat="45.88754904270172" lon="10.926682710647583">
				<ele>1240.5999755859375</ele>
				<time>2026-06-07T10:21:21Z</time>
			</trkpt>
			<trkpt lat="45.88763642311096" lon="10.926700472831726">
				<ele>1240.0</ele>
				<time>2026-06-07T10:21:25Z</time>
			</trkpt>
			<trkpt lat="45.88768541812897" lon="10.92666757106781">
				<ele>1239.4000244140625</ele>
				<time>2026-06-07T10:21:37Z</time>
			</trkpt>
			<trkpt lat="45.88769888877869" lon="10.926661491394043">
				<ele>1240.800048828125</ele>
				<time>2026-06-07T10:21:50Z</time>
			</trkpt>
			<trkpt lat="45.887710213661194" lon="10.926655292510986">
				<ele>1241.0</ele>
				<time>2026-06-07T10:21:56Z</time>
			</trkpt>
			<trkpt lat="45.88780736923218" lon="10.926631093025208">
				<ele>1240.800048828125</ele>
				<time>2026-06-07T10:21:57Z</time>
			</trkpt>
			<trkpt lat="45.887871503829956" lon="10.926605463027954">
				<ele>1240.5999755859375</ele>
				<time>2026-06-07T10:21:58Z</time>
			</trkpt>
			<trkpt lat="45.88788115978241" lon="10.926600933074951">
				<ele>1238.5999755859375</ele>
				<time>2026-06-07T10:22:10Z</time>
			</trkpt>
			<trkpt lat="45.88791489601135" lon="10.926584124565125">
				<ele>1237.4000244140625</ele>
				<time>2026-06-07T10:22:26Z</time>
			</trkpt>
			<trkpt lat="45.887935280799866" lon="10.926579117774963">
				<ele>1238.0</ele>
				<time>2026-06-07T10:22:42Z</time>
			</trkpt>
			<trkpt lat="45.88794708251953" lon="10.926579713821411">
				<ele>1237.800048828125</ele>
				<time>2026-06-07T10:23:00Z</time>
			</trkpt>
			<trkpt lat="45.88797974586487" lon="10.926566004753113">
				<ele>1237.800048828125</ele>
				<time>2026-06-07T10:23:02Z</time>
			</trkpt>
			<trkpt lat="45.88799059391022" lon="10.926566243171692">
				<ele>1237.800048828125</ele>
				<time>2026-06-07T10:23:03Z</time>
			</trkpt>
			<trkpt lat="45.8880010843277" lon="10.926568031311035">
				<ele>1237.199951171875</ele>
				<time>2026-06-07T10:23:10Z</time>
			</trkpt>
			<trkpt lat="45.88801169395447" lon="10.926569938659668">
				<ele>1237.0</ele>
				<time>2026-06-07T10:23:11Z</time>
			</trkpt>
			<trkpt lat="45.88802206516266" lon="10.926571011543274">
				<ele>1237.0</ele>
				<time>2026-06-07T10:23:12Z</time>
			</trkpt>
			<trkpt lat="45.888038754463196" lon="10.926563620567322">
				<ele>1236.800048828125</ele>
				<time>2026-06-07T10:23:13Z</time>
			</trkpt>
			<trkpt lat="45.88804543018341" lon="10.926553130149841">
				<ele>1236.800048828125</ele>
				<time>2026-06-07T10:23:14Z</time>
			</trkpt>
			<trkpt lat="45.88807427883148" lon="10.926511645317078">
				<ele>1236.5999755859375</ele>
				<time>2026-06-07T10:23:16Z</time>
			</trkpt>
			<trkpt lat="45.88808071613312" lon="10.926522493362427">
				<ele>1236.5999755859375</ele>
				<time>2026-06-07T10:23:17Z</time>
			</trkpt>
			<trkpt lat="45.88808035850525" lon="10.92652416229248">
				<ele>1236.4000244140625</ele>
				<time>2026-06-07T10:23:21Z</time>
			</trkpt>
			<trkpt lat="45.888073444366455" lon="10.926559925079346">
				<ele>1235.800048828125</ele>
				<time>2026-06-07T10:23:38Z</time>
			</trkpt>
			<trkpt lat="45.88807225227356" lon="10.926575899124146">
				<ele>1235.800048828125</ele>
				<time>2026-06-07T10:23:40Z</time>
			</trkpt>
			<trkpt lat="45.888073325157166" lon="10.926590919494629">
				<ele>1235.800048828125</ele>
				<time>2026-06-07T10:23:43Z</time>
			</trkpt>
			<trkpt lat="45.88807463645935" lon="10.926607966423035">
				<ele>1235.800048828125</ele>
				<time>2026-06-07T10:23:44Z</time>
			</trkpt>
			<trkpt lat="45.88807761669159" lon="10.926627278327942">
				<ele>1235.800048828125</ele>
				<time>2026-06-07T10:23:45Z</time>
			</trkpt>
			<trkpt lat="45.88808238506317" lon="10.92664635181427">
				<ele>1235.800048828125</ele>
				<time>2026-06-07T10:23:46Z</time>
			</trkpt>
			<trkpt lat="45.88808751106262" lon="10.926665186882019">
				<ele>1235.800048828125</ele>
				<time>2026-06-07T10:23:47Z</time>
			</trkpt>
			<trkpt lat="45.88811683654785" lon="10.926804900169373">
				<ele>1235.5999755859375</ele>
				<time>2026-06-07T10:23:48Z</time>
			</trkpt>
			<trkpt lat="45.88812577724457" lon="10.926839709281921">
				<ele>1235.5999755859375</ele>
				<time>2026-06-07T10:23:49Z</time>
			</trkpt>
			<trkpt lat="45.888128876686096" lon="10.926854848861694">
				<ele>1235.5999755859375</ele>
				<time>2026-06-07T10:24:05Z</time>
			</trkpt>
			<trkpt lat="45.88813316822052" lon="10.926870226860046">
				<ele>1235.5999755859375</ele>
				<time>2026-06-07T10:24:08Z</time>
			</trkpt>
			<trkpt lat="45.88818371295929" lon="10.927052021026611">
				<ele>1235.5999755859375</ele>
				<time>2026-06-07T10:24:09Z</time>
			</trkpt>
			<trkpt lat="45.888190031051636" lon="10.927065014839172">
				<ele>1235.5999755859375</ele>
				<time>2026-06-07T10:24:10Z</time>
			</trkpt>
			<trkpt lat="45.888195276260376" lon="10.92707884311676">
				<ele>1235.4000244140625</ele>
				<time>2026-06-07T10:24:22Z</time>
			</trkpt>
			<trkpt lat="45.88826763629913" lon="10.927297592163086">
				<ele>1235.4000244140625</ele>
				<time>2026-06-07T10:24:23Z</time>
			</trkpt>
			<trkpt lat="45.88828253746033" lon="10.927359342575073">
				<ele>1235.4000244140625</ele>
				<time>2026-06-07T10:24:24Z</time>
			</trkpt>
			<trkpt lat="45.88828790187836" lon="10.927375316619873">
				<ele>1234.5999755859375</ele>
				<time>2026-06-07T10:24:39Z</time>
			</trkpt>
			<trkpt lat="45.888294100761414" lon="10.927390456199646">
				<ele>1234.4000244140625</ele>
				<time>2026-06-07T10:24:43Z</time>
			</trkpt>
			<trkpt lat="45.888378500938416" lon="10.927610397338867">
				<ele>1234.4000244140625</ele>
				<time>2026-06-07T10:24:44Z</time>
			</trkpt>
			<trkpt lat="45.88847899436951" lon="10.927672266960144">
				<ele>1234.199951171875</ele>
				<time>2026-06-07T10:24:45Z</time>
			</trkpt>
			<trkpt lat="45.88854706287384" lon="10.927636742591858">
				<ele>1232.5999755859375</ele>
				<time>2026-06-07T10:25:01Z</time>
			</trkpt>
			<trkpt lat="45.88856542110443" lon="10.927638173103333">
				<ele>1229.5999755859375</ele>
				<time>2026-06-07T10:25:16Z</time>
			</trkpt>
			<trkpt lat="45.88858449459076" lon="10.927625060081482">
				<ele>1229.4000244140625</ele>
				<time>2026-06-07T10:25:32Z</time>
			</trkpt>
			<trkpt lat="45.88858723640442" lon="10.927613735198975">
				<ele>1229.4000244140625</ele>
				<time>2026-06-07T10:25:48Z</time>
			</trkpt>
			<trkpt lat="45.88858509063721" lon="10.927610874176025">
				<ele>1229.4000244140625</ele>
				<time>2026-06-07T10:26:05Z</time>
			</trkpt>
			<trkpt lat="45.88858604431152" lon="10.927616477012634">
				<ele>1230.0</ele>
				<time>2026-06-07T10:27:18Z</time>
			</trkpt>
			<trkpt lat="45.888585805892944" lon="10.927602887153625">
				<ele>1229.5999755859375</ele>
				<time>2026-06-07T10:28:40Z</time>
			</trkpt>
			<trkpt lat="45.888583183288574" lon="10.927607417106628">
				<ele>1229.199951171875</ele>
				<time>2026-06-07T10:30:06Z</time>
			</trkpt>
			<trkpt lat="45.88857853412628" lon="10.92760944366455">
				<ele>1228.800048828125</ele>
				<time>2026-06-07T10:31:21Z</time>
			</trkpt>
			<trkpt lat="45.88857972621918" lon="10.927613615989685">
				<ele>1229.0</ele>
				<time>2026-06-07T10:32:44Z</time>
			</trkpt>
			<trkpt lat="45.888580441474915" lon="10.927610397338867">
				<ele>1228.5999755859375</ele>
				<time>2026-06-07T10:34:07Z</time>
			</trkpt>
			<trkpt lat="45.888572335243225" lon="10.927608728408813">
				<ele>1228.800048828125</ele>
				<time>2026-06-07T10:35:33Z</time>
			</trkpt>
			<trkpt lat="45.88858091831207" lon="10.927607536315918">
				<ele>1228.800048828125</ele>
				<time>2026-06-07T10:36:50Z</time>
			</trkpt>
			<trkpt lat="45.88857305049896" lon="10.927622437477112">
				<ele>1228.5999755859375</ele>
				<time>2026-06-07T10:38:13Z</time>
			</trkpt>
			<trkpt lat="45.88857686519623" lon="10.927619218826294">
				<ele>1228.5999755859375</ele>
				<time>2026-06-07T10:39:42Z</time>
			</trkpt>
			<trkpt lat="45.88857614994049" lon="10.927619099617004">
				<ele>1228.5999755859375</ele>
				<time>2026-06-07T10:41:23Z</time>
			</trkpt>
			<trkpt lat="45.88857138156891" lon="10.927622437477112">
				<ele>1228.800048828125</ele>
				<time>2026-06-07T10:43:06Z</time>
			</trkpt>
			<trkpt lat="45.88858449459076" lon="10.92761218547821">
				<ele>1228.800048828125</ele>
				<time>2026-06-07T10:44:25Z</time>
			</trkpt>
			<trkpt lat="45.888582825660706" lon="10.927611470222473">
				<ele>1228.5999755859375</ele>
				<time>2026-06-07T10:45:57Z</time>
			</trkpt>
			<trkpt lat="45.88856875896454" lon="10.927623629570007">
				<ele>1228.5999755859375</ele>
				<time>2026-06-07T10:47:36Z</time>
			</trkpt>
			<trkpt lat="45.888577818870544" lon="10.92762291431427">
				<ele>1228.5999755859375</ele>
				<time>2026-06-07T10:49:09Z</time>
			</trkpt>
			<trkpt lat="45.88857889175415" lon="10.927617311477661">
				<ele>1228.4000244140625</ele>
				<time>2026-06-07T10:50:30Z</time>
			</trkpt>
			<trkpt lat="45.888585567474365" lon="10.927624583244324">
				<ele>1228.4000244140625</ele>
				<time>2026-06-07T10:51:53Z</time>
			</trkpt>
			<trkpt lat="45.88858473300934" lon="10.92761218547821">
				<ele>1228.4000244140625</ele>
				<time>2026-06-07T10:53:41Z</time>
			</trkpt>
			<trkpt lat="45.88857293128967" lon="10.927617907524109">
				<ele>1228.4000244140625</ele>
				<time>2026-06-07T10:55:04Z</time>
			</trkpt>
			<trkpt lat="45.888580083847046" lon="10.927626132965088">
				<ele>1228.5999755859375</ele>
				<time>2026-06-07T10:56:29Z</time>
			</trkpt>
			<trkpt lat="45.888577461242676" lon="10.927624821662903">
				<ele>1228.4000244140625</ele>
				<time>2026-06-07T10:58:08Z</time>
			</trkpt>
			<trkpt lat="45.888559460639954" lon="10.927612066268921">
				<ele>1228.5999755859375</ele>
				<time>2026-06-07T10:59:37Z</time>
			</trkpt>
			<trkpt lat="45.8885532617569" lon="10.927624583244324">
				<ele>1228.5999755859375</ele>
				<time>2026-06-07T11:00:58Z</time>
			</trkpt>
			<trkpt lat="45.88846254348755" lon="10.927747130393982">
				<ele>1228.4000244140625</ele>
				<time>2026-06-07T11:02:21Z</time>
			</trkpt>
			<trkpt lat="45.88852286338806" lon="10.927936315536499">
				<ele>1228.0</ele>
				<time>2026-06-07T11:03:40Z</time>
			</trkpt>
			<trkpt lat="45.888527154922485" lon="10.927955508232117">
				<ele>1228.800048828125</ele>
				<time>2026-06-07T11:04:15Z</time>
			</trkpt>
			<trkpt lat="45.88853180408478" lon="10.927973508834839">
				<ele>1227.5999755859375</ele>
				<time>2026-06-07T11:04:31Z</time>
			</trkpt>
			<trkpt lat="45.888537883758545" lon="10.927987575531006">
				<ele>1227.4000244140625</ele>
				<time>2026-06-07T11:04:32Z</time>
			</trkpt>
			<trkpt lat="45.88854432106018" lon="10.928000926971436">
				<ele>1227.199951171875</ele>
				<time>2026-06-07T11:04:33Z</time>
			</trkpt>
			<trkpt lat="45.888548254966736" lon="10.928016185760498">
				<ele>1227.199951171875</ele>
				<time>2026-06-07T11:04:34Z</time>
			</trkpt>
			<trkpt lat="45.888550877571106" lon="10.928032636642456">
				<ele>1227.0</ele>
				<time>2026-06-07T11:04:35Z</time>
			</trkpt>
			<trkpt lat="45.88855504989624" lon="10.928047776222229">
				<ele>1226.800048828125</ele>
				<time>2026-06-07T11:04:36Z</time>
			</trkpt>
			<trkpt lat="45.88868010044098" lon="10.92831826210022">
				<ele>1226.5999755859375</ele>
				<time>2026-06-07T11:04:37Z</time>
			</trkpt>
			<trkpt lat="45.88878655433655" lon="10.928561210632324">
				<ele>1226.5999755859375</ele>
				<time>2026-06-07T11:04:38Z</time>
			</trkpt>
			<trkpt lat="45.88883972167969" lon="10.92880928516388">
				<ele>1224.0</ele>
				<time>2026-06-07T11:04:58Z</time>
			</trkpt>
			<trkpt lat="45.88892602920532" lon="10.929118514060974">
				<ele>1221.800048828125</ele>
				<time>2026-06-07T11:05:15Z</time>
			</trkpt>
			<trkpt lat="45.88900542259216" lon="10.929445385932922">
				<ele>1221.4000244140625</ele>
				<time>2026-06-07T11:05:30Z</time>
			</trkpt>
			<trkpt lat="45.889116168022156" lon="10.929722785949707">
				<ele>1220.199951171875</ele>
				<time>2026-06-07T11:05:49Z</time>
			</trkpt>
			<trkpt lat="45.88923370838165" lon="10.930065155029297">
				<ele>1217.5999755859375</ele>
				<time>2026-06-07T11:06:08Z</time>
			</trkpt>
			<trkpt lat="45.88935899734497" lon="10.930343985557556">
				<ele>1216.199951171875</ele>
				<time>2026-06-07T11:06:26Z</time>
			</trkpt>
			<trkpt lat="45.88950431346893" lon="10.93047571182251">
				<ele>1213.199951171875</ele>
				<time>2026-06-07T11:06:47Z</time>
			</trkpt>
			<trkpt lat="45.88967680931091" lon="10.930655002593994">
				<ele>1210.199951171875</ele>
				<time>2026-06-07T11:07:07Z</time>
			</trkpt>
			<trkpt lat="45.88985311985016" lon="10.93088185787201">
				<ele>1207.0</ele>
				<time>2026-06-07T11:07:23Z</time>
			</trkpt>
			<trkpt lat="45.890031576156616" lon="10.931088924407959">
				<ele>1204.0</ele>
				<time>2026-06-07T11:07:39Z</time>
			</trkpt>
			<trkpt lat="45.89025259017944" lon="10.931241273880005">
				<ele>1201.0</ele>
				<time>2026-06-07T11:07:58Z</time>
			</trkpt>
			<trkpt lat="45.89047658443451" lon="10.931241631507874">
				<ele>1199.5999755859375</ele>
				<time>2026-06-07T11:08:16Z</time>
			</trkpt>
			<trkpt lat="45.890679597854614" lon="10.931237578392029">
				<ele>1198.800048828125</ele>
				<time>2026-06-07T11:08:35Z</time>
			</trkpt>
			<trkpt lat="45.89070975780487" lon="10.93129312992096">
				<ele>1196.5999755859375</ele>
				<time>2026-06-07T11:08:54Z</time>
			</trkpt>
			<trkpt lat="45.89081597328186" lon="10.931481122970581">
				<ele>1194.5999755859375</ele>
				<time>2026-06-07T11:09:13Z</time>
			</trkpt>
			<trkpt lat="45.89095628261566" lon="10.931710600852966">
				<ele>1194.5999755859375</ele>
				<time>2026-06-07T11:09:28Z</time>
			</trkpt>
			<trkpt lat="45.89113712310791" lon="10.931974053382874">
				<ele>1194.4000244140625</ele>
				<time>2026-06-07T11:09:42Z</time>
			</trkpt>
			<trkpt lat="45.89120543003082" lon="10.932141065597534">
				<ele>1194.0</ele>
				<time>2026-06-07T11:10:00Z</time>
			</trkpt>
			<trkpt lat="45.891215324401855" lon="10.932166934013367">
				<ele>1191.5999755859375</ele>
				<time>2026-06-07T11:10:19Z</time>
			</trkpt>
			<trkpt lat="45.89122128486633" lon="10.932182431221008">
				<ele>1191.0</ele>
				<time>2026-06-07T11:10:36Z</time>
			</trkpt>
			<trkpt lat="45.89122831821442" lon="10.932199358940125">
				<ele>1191.0</ele>
				<time>2026-06-07T11:10:38Z</time>
			</trkpt>
			<trkpt lat="45.89137613773346" lon="10.932579398155212">
				<ele>1190.800048828125</ele>
				<time>2026-06-07T11:10:39Z</time>
			</trkpt>
			<trkpt lat="45.891392827034" lon="10.932926177978516">
				<ele>1190.800048828125</ele>
				<time>2026-06-07T11:10:40Z</time>
			</trkpt>
			<trkpt lat="45.891385555267334" lon="10.933259010314941">
				<ele>1190.4000244140625</ele>
				<time>2026-06-07T11:11:03Z</time>
			</trkpt>
			<trkpt lat="45.89132869243622" lon="10.933632493019104">
				<ele>1188.5999755859375</ele>
				<time>2026-06-07T11:11:23Z</time>
			</trkpt>
			<trkpt lat="45.89133882522583" lon="10.9340158700943">
				<ele>1185.800048828125</ele>
				<time>2026-06-07T11:11:42Z</time>
			</trkpt>
			<trkpt lat="45.89141654968262" lon="10.934253931045532">
				<ele>1183.5999755859375</ele>
				<time>2026-06-07T11:12:02Z</time>
			</trkpt>
			<trkpt lat="45.89145851135254" lon="10.934513092041016">
				<ele>1183.199951171875</ele>
				<time>2026-06-07T11:12:22Z</time>
			</trkpt>
			<trkpt lat="45.891464710235596" lon="10.934531688690186">
				<ele>1183.800048828125</ele>
				<time>2026-06-07T11:12:37Z</time>
			</trkpt>
			<trkpt lat="45.89147400856018" lon="10.934548735618591">
				<ele>1185.800048828125</ele>
				<time>2026-06-07T11:12:51Z</time>
			</trkpt>
			<trkpt lat="45.89148139953613" lon="10.934566736221313">
				<ele>1186.0</ele>
				<time>2026-06-07T11:12:52Z</time>
			</trkpt>
			<trkpt lat="45.891485929489136" lon="10.934585332870483">
				<ele>1186.0</ele>
				<time>2026-06-07T11:12:53Z</time>
			</trkpt>
			<trkpt lat="45.8914874792099" lon="10.934602975845337">
				<ele>1186.199951171875</ele>
				<time>2026-06-07T11:12:54Z</time>
			</trkpt>
			<trkpt lat="45.891488671302795" lon="10.934621095657349">
				<ele>1186.199951171875</ele>
				<time>2026-06-07T11:12:55Z</time>
			</trkpt>
			<trkpt lat="45.89158082008362" lon="10.934976577758789">
				<ele>1186.4000244140625</ele>
				<time>2026-06-07T11:12:56Z</time>
			</trkpt>
			<trkpt lat="45.89163410663605" lon="10.935149788856506">
				<ele>1186.4000244140625</ele>
				<time>2026-06-07T11:12:57Z</time>
			</trkpt>
			<trkpt lat="45.8916449546814" lon="10.935162782669067">
				<ele>1187.4000244140625</ele>
				<time>2026-06-07T11:13:17Z</time>
			</trkpt>
			<trkpt lat="45.891733288764954" lon="10.935406565666199">
				<ele>1187.800048828125</ele>
				<time>2026-06-07T11:13:27Z</time>
			</trkpt>
			<trkpt lat="45.89185333251953" lon="10.935739517211914">
				<ele>1188.0</ele>
				<time>2026-06-07T11:13:28Z</time>
			</trkpt>
			<trkpt lat="45.89197862148285" lon="10.935971140861511">
				<ele>1188.4000244140625</ele>
				<time>2026-06-07T11:13:44Z</time>
			</trkpt>
			<trkpt lat="45.89217233657837" lon="10.936198949813843">
				<ele>1186.4000244140625</ele>
				<time>2026-06-07T11:14:04Z</time>
			</trkpt>
			<trkpt lat="45.8923522233963" lon="10.9364732503891">
				<ele>1185.5999755859375</ele>
				<time>2026-06-07T11:14:21Z</time>
			</trkpt>
			<trkpt lat="45.892513394355774" lon="10.936772227287292">
				<ele>1183.5999755859375</ele>
				<time>2026-06-07T11:14:41Z</time>
			</trkpt>
			<trkpt lat="45.89258062839508" lon="10.937044858932495">
				<ele>1181.4000244140625</ele>
				<time>2026-06-07T11:15:02Z</time>
			</trkpt>
			<trkpt lat="45.892597794532776" lon="10.937427401542664">
				<ele>1178.199951171875</ele>
				<time>2026-06-07T11:15:23Z</time>
			</trkpt>
			<trkpt lat="45.89247965812683" lon="10.937760829925537">
				<ele>1175.0</ele>
				<time>2026-06-07T11:15:41Z</time>
			</trkpt>
			<trkpt lat="45.892441749572754" lon="10.937827706336975">
				<ele>1172.0</ele>
				<time>2026-06-07T11:16:03Z</time>
			</trkpt>
			<trkpt lat="45.892418384552" lon="10.937875390052795">
				<ele>1170.4000244140625</ele>
				<time>2026-06-07T11:16:25Z</time>
			</trkpt>
			<trkpt lat="45.8924515247345" lon="10.937894582748413">
				<ele>1169.5999755859375</ele>
				<time>2026-06-07T11:16:38Z</time>
			</trkpt>
			<trkpt lat="45.892460346221924" lon="10.93791913986206">
				<ele>1169.5999755859375</ele>
				<time>2026-06-07T11:16:42Z</time>
			</trkpt>
			<trkpt lat="45.89246678352356" lon="10.93793272972107">
				<ele>1169.199951171875</ele>
				<time>2026-06-07T11:16:53Z</time>
			</trkpt>
			<trkpt lat="45.892473578453064" lon="10.937947392463684">
				<ele>1169.0</ele>
				<time>2026-06-07T11:16:55Z</time>
			</trkpt>
			<trkpt lat="45.892481565475464" lon="10.9379643201828">
				<ele>1169.0</ele>
				<time>2026-06-07T11:16:56Z</time>
			</trkpt>
			<trkpt lat="45.892491579055786" lon="10.93798053264618">
				<ele>1168.800048828125</ele>
				<time>2026-06-07T11:16:57Z</time>
			</trkpt>
			<trkpt lat="45.89250147342682" lon="10.937997341156006">
				<ele>1168.5999755859375</ele>
				<time>2026-06-07T11:16:58Z</time>
			</trkpt>
			<trkpt lat="45.892595052719116" lon="10.938233971595764">
				<ele>1168.5999755859375</ele>
				<time>2026-06-07T11:16:59Z</time>
			</trkpt>
			<trkpt lat="45.89260399341583" lon="10.938245058059692">
				<ele>1168.199951171875</ele>
				<time>2026-06-07T11:17:00Z</time>
			</trkpt>
			<trkpt lat="45.89261329174042" lon="10.938256859779358">
				<ele>1165.199951171875</ele>
				<time>2026-06-07T11:17:16Z</time>
			</trkpt>
			<trkpt lat="45.89262354373932" lon="10.938267946243286">
				<ele>1165.0</ele>
				<time>2026-06-07T11:17:17Z</time>
			</trkpt>
			<trkpt lat="45.89263355731964" lon="10.938279151916504">
				<ele>1164.800048828125</ele>
				<time>2026-06-07T11:17:18Z</time>
			</trkpt>
			<trkpt lat="45.89264440536499" lon="10.93829071521759">
				<ele>1164.800048828125</ele>
				<time>2026-06-07T11:17:19Z</time>
			</trkpt>
			<trkpt lat="45.89265465736389" lon="10.938302874565125">
				<ele>1164.5999755859375</ele>
				<time>2026-06-07T11:17:20Z</time>
			</trkpt>
			<trkpt lat="45.89266383647919" lon="10.938313603401184">
				<ele>1164.4000244140625</ele>
				<time>2026-06-07T11:17:21Z</time>
			</trkpt>
			<trkpt lat="45.89267313480377" lon="10.938324332237244">
				<ele>1164.199951171875</ele>
				<time>2026-06-07T11:17:22Z</time>
			</trkpt>
			<trkpt lat="45.89268207550049" lon="10.93833601474762">
				<ele>1164.0</ele>
				<time>2026-06-07T11:17:23Z</time>
			</trkpt>
			<trkpt lat="45.89269030094147" lon="10.938347101211548">
				<ele>1163.800048828125</ele>
				<time>2026-06-07T11:17:24Z</time>
			</trkpt>
			<trkpt lat="45.89280915260315" lon="10.93853497505188">
				<ele>1163.5999755859375</ele>
				<time>2026-06-07T11:17:25Z</time>
			</trkpt>
			<trkpt lat="45.892842054367065" lon="10.938562035560608">
				<ele>1163.4000244140625</ele>
				<time>2026-06-07T11:17:26Z</time>
			</trkpt>
			<trkpt lat="45.89285409450531" lon="10.938567519187927">
				<ele>1160.4000244140625</ele>
				<time>2026-06-07T11:17:41Z</time>
			</trkpt>
			<trkpt lat="45.89288783073425" lon="10.938589692115784">
				<ele>1159.800048828125</ele>
				<time>2026-06-07T11:17:44Z</time>
			</trkpt>
			<trkpt lat="45.892897605895996" lon="10.938600540161133">
				<ele>1159.5999755859375</ele>
				<time>2026-06-07T11:17:45Z</time>
			</trkpt>
			<trkpt lat="45.8929078578949" lon="10.93861186504364">
				<ele>1159.0</ele>
				<time>2026-06-07T11:17:48Z</time>
			</trkpt>
			<trkpt lat="45.89291775226593" lon="10.938624382019043">
				<ele>1158.800048828125</ele>
				<time>2026-06-07T11:17:49Z</time>
			</trkpt>
			<trkpt lat="45.89292788505554" lon="10.938637852668762">
				<ele>1158.5999755859375</ele>
				<time>2026-06-07T11:17:50Z</time>
			</trkpt>
			<trkpt lat="45.892937660217285" lon="10.93865168094635">
				<ele>1158.4000244140625</ele>
				<time>2026-06-07T11:17:51Z</time>
			</trkpt>
			<trkpt lat="45.89314150810242" lon="10.938979983329773">
				<ele>1158.4000244140625</ele>
				<time>2026-06-07T11:17:52Z</time>
			</trkpt>
			<trkpt lat="45.893310546875" lon="10.939210891723633">
				<ele>1158.199951171875</ele>
				<time>2026-06-07T11:17:53Z</time>
			</trkpt>
			<trkpt lat="45.89347541332245" lon="10.939515233039856">
				<ele>1155.199951171875</ele>
				<time>2026-06-07T11:18:15Z</time>
			</trkpt>
			<trkpt lat="45.893619656562805" lon="10.93980073928833">
				<ele>1153.4000244140625</ele>
				<time>2026-06-07T11:18:33Z</time>
			</trkpt>
			<trkpt lat="45.89376699924469" lon="10.940080881118774">
				<ele>1152.199951171875</ele>
				<time>2026-06-07T11:18:54Z</time>
			</trkpt>
			<trkpt lat="45.89392960071564" lon="10.940384030342102">
				<ele>1151.5999755859375</ele>
				<time>2026-06-07T11:19:13Z</time>
			</trkpt>
			<trkpt lat="45.89411926269531" lon="10.940597176551819">
				<ele>1150.800048828125</ele>
				<time>2026-06-07T11:19:32Z</time>
			</trkpt>
			<trkpt lat="45.89431381225586" lon="10.940803050994873">
				<ele>1148.5999755859375</ele>
				<time>2026-06-07T11:19:52Z</time>
			</trkpt>
			<trkpt lat="45.89454424381256" lon="10.94100284576416">
				<ele>1146.800048828125</ele>
				<time>2026-06-07T11:20:12Z</time>
			</trkpt>
			<trkpt lat="45.894731879234314" lon="10.941198825836182">
				<ele>1145.4000244140625</ele>
				<time>2026-06-07T11:20:29Z</time>
			</trkpt>
			<trkpt lat="45.89498460292816" lon="10.941351413726807">
				<ele>1144.199951171875</ele>
				<time>2026-06-07T11:20:48Z</time>
			</trkpt>
			<trkpt lat="45.89518976211548" lon="10.941383481025696">
				<ele>1143.4000244140625</ele>
				<time>2026-06-07T11:21:05Z</time>
			</trkpt>
			<trkpt lat="45.89544677734375" lon="10.941383242607117">
				<ele>1142.4000244140625</ele>
				<time>2026-06-07T11:21:24Z</time>
			</trkpt>
			<trkpt lat="45.89552140235901" lon="10.941400051116943">
				<ele>1141.800048828125</ele>
				<time>2026-06-07T11:21:41Z</time>
			</trkpt>
			<trkpt lat="45.895737528800964" lon="10.94134509563446">
				<ele>1141.0</ele>
				<time>2026-06-07T11:22:00Z</time>
			</trkpt>
			<trkpt lat="45.89591932296753" lon="10.941195964813232">
				<ele>1140.5999755859375</ele>
				<time>2026-06-07T11:22:07Z</time>
			</trkpt>
			<trkpt lat="45.89608085155487" lon="10.940983653068542">
				<ele>1139.800048828125</ele>
				<time>2026-06-07T11:22:24Z</time>
			</trkpt>
			<trkpt lat="45.89611089229584" lon="10.940948367118835">
				<ele>1139.199951171875</ele>
				<time>2026-06-07T11:22:41Z</time>
			</trkpt>
			<trkpt lat="45.89612257480621" lon="10.940942406654358">
				<ele>1138.800048828125</ele>
				<time>2026-06-07T11:22:59Z</time>
			</trkpt>
			<trkpt lat="45.89619588851929" lon="10.940868496894836">
				<ele>1138.800048828125</ele>
				<time>2026-06-07T11:23:03Z</time>
			</trkpt>
			<trkpt lat="45.896236062049866" lon="10.940937638282776">
				<ele>1138.800048828125</ele>
				<time>2026-06-07T11:23:04Z</time>
			</trkpt>
			<trkpt lat="45.89623200893402" lon="10.940919637680054">
				<ele>1138.800048828125</ele>
				<time>2026-06-07T11:23:15Z</time>
			</trkpt>
		</trkseg>
	</trk>
</gpx>
